{"type":"FeatureCollection","features":[{"type":"Feature","geometry":{"type":"Point","coordinates":[7.0984,50.709532]},"properties":{"gbif_id":4436088679,"dataset":"iNaturalist Research-grade Observations","basis_of_record":"HUMAN_OBSERVATION","event_date":"2023-05-02T16:50:53","year":2023,"coordinate_uncertainty_m":null,"license":"http://creativecommons.org/licenses/by/4.0/legalcode","automated_identification":false,"url":"https://www.gbif.org/occurrence/4436088679"}},{"type":"Feature","geometry":{"type":"Point","coordinates":[7.141986,50.653677]},"properties":{"gbif_id":5109890543,"dataset":"Pl@ntNet observations","basis_of_record":"HUMAN_OBSERVATION","event_date":"2023-08-23T16:37:26Z","year":2023,"coordinate_uncertainty_m":3.0,"license":"http://creativecommons.org/licenses/by/4.0/legalcode","automated_identification":false,"url":"https://www.gbif.org/occurrence/5109890543"}},{"type":"Feature","geometry":{"type":"Point","coordinates":[7.098333,50.709444]},"properties":{"gbif_id":3772409910,"dataset":"iNaturalist Research-grade Observations","basis_of_record":"HUMAN_OBSERVATION","event_date":"2022-04-29T19:35:53","year":2022,"coordinate_uncertainty_m":null,"license":"http://creativecommons.org/licenses/by/4.0/legalcode","automated_identification":false,"url":"https://www.gbif.org/occurrence/3772409910"}},{"type":"Feature","geometry":{"type":"Point","coordinates":[7.065278,50.735]},"properties":{"gbif_id":4137621523,"dataset":"iNaturalist Research-grade Observations","basis_of_record":"HUMAN_OBSERVATION","event_date":"2022-04-23T18:29:33","year":2022,"coordinate_uncertainty_m":null,"license":"http://creativecommons.org/licenses/by-nc/4.0/legalcode","automated_identification":false,"url":"https://www.gbif.org/occurrence/4137621523"}},{"type":"Feature","geometry":{"type":"Point","coordinates":[7.146993,50.654649]},"properties":{"gbif_id":3949604399,"dataset":"Pl@ntNet observations","basis_of_record":"HUMAN_OBSERVATION","event_date":"2022-05-29T11:36:54Z","year":2022,"coordinate_uncertainty_m":6.0,"license":"http://creativecommons.org/licenses/by/4.0/legalcode","automated_identification":false,"url":"https://www.gbif.org/occurrence/3949604399"}},{"type":"Feature","geometry":{"type":"Point","coordinates":[7.106047,50.701405]},"properties":{"gbif_id":3997793201,"dataset":"Pl@ntNet observations","basis_of_record":"HUMAN_OBSERVATION","event_date":"2022-09-16T07:54:14.982Z","year":2022,"coordinate_uncertainty_m":40.0,"license":"http://creativecommons.org/licenses/by/4.0/legalcode","automated_identification":false,"url":"https://www.gbif.org/occurrence/3997793201"}},{"type":"Feature","geometry":{"type":"Point","coordinates":[7.139985,50.750366]},"properties":{"gbif_id":3949169041,"dataset":"Pl@ntNet observations","basis_of_record":"HUMAN_OBSERVATION","event_date":"2021-05-24T18:10:35Z","year":2021,"coordinate_uncertainty_m":9.0,"license":"http://creativecommons.org/licenses/by/4.0/legalcode","automated_identification":false,"url":"https://www.gbif.org/occurrence/3949169041"}},{"type":"Feature","geometry":{"type":"Point","coordinates":[7.032885,50.702186]},"properties":{"gbif_id":3959663860,"dataset":"Pl@ntNet automatically identified occurrences","basis_of_record":"HUMAN_OBSERVATION","event_date":"2021-05-23T13:37:40.493Z","year":2021,"coordinate_uncertainty_m":12.0,"license":"http://creativecommons.org/licenses/by/4.0/legalcode","automated_identification":true,"url":"https://www.gbif.org/occurrence/3959663860"}},{"type":"Feature","geometry":{"type":"Point","coordinates":[7.149637,50.734647]},"properties":{"gbif_id":3384224692,"dataset":"iNaturalist Research-grade Observations","basis_of_record":"HUMAN_OBSERVATION","event_date":"2021-09-12T12:39","year":2021,"coordinate_uncertainty_m":15.0,"license":"http://creativecommons.org/licenses/by-nc/4.0/legalcode","automated_identification":false,"url":"https://www.gbif.org/occurrence/3384224692"}},{"type":"Feature","geometry":{"type":"Point","coordinates":[7.092466,50.728802]},"properties":{"gbif_id":5109146144,"dataset":"Pl@ntNet observations","basis_of_record":"HUMAN_OBSERVATION","event_date":"2020-08-03T08:19:01Z","year":2020,"coordinate_uncertainty_m":null,"license":"http://creativecommons.org/licenses/by/4.0/legalcode","automated_identification":false,"url":"https://www.gbif.org/occurrence/5109146144"}},{"type":"Feature","geometry":{"type":"Point","coordinates":[7.103112,50.705623]},"properties":{"gbif_id":2573820101,"dataset":"iNaturalist Research-grade Observations","basis_of_record":"HUMAN_OBSERVATION","event_date":"2019-08-10T13:32","year":2019,"coordinate_uncertainty_m":null,"license":"http://creativecommons.org/publicdomain/zero/1.0/legalcode","automated_identification":false,"url":"https://www.gbif.org/occurrence/2573820101"}},{"type":"Feature","geometry":{"type":"Point","coordinates":[7.102074,50.749578]},"properties":{"gbif_id":2644034275,"dataset":"Pl@ntNet observations","basis_of_record":"HUMAN_OBSERVATION","event_date":"2019-09-16T09:42:28Z","year":2019,"coordinate_uncertainty_m":null,"license":"http://creativecommons.org/licenses/by/4.0/legalcode","automated_identification":false,"url":"https://www.gbif.org/occurrence/2644034275"}},{"type":"Feature","geometry":{"type":"Point","coordinates":[7.159808,50.733364]},"properties":{"gbif_id":4534505435,"dataset":"ArtenFinder","basis_of_record":"HUMAN_OBSERVATION","event_date":"2016-05-19","year":2016,"coordinate_uncertainty_m":5.0,"license":"http://creativecommons.org/publicdomain/zero/1.0/legalcode","automated_identification":false,"url":"https://www.gbif.org/occurrence/4534505435"}},{"type":"Feature","geometry":{"type":"Point","coordinates":[7.12444,50.69222]},"properties":{"gbif_id":1584394073,"dataset":"Herbarium Berolinense, Berlin (B)","basis_of_record":"PRESERVED_SPECIMEN","event_date":"2014-05-11","year":2014,"coordinate_uncertainty_m":null,"license":"http://creativecommons.org/publicdomain/zero/1.0/legalcode","automated_identification":false,"url":"https://www.gbif.org/occurrence/1584394073"}},{"type":"Feature","geometry":{"type":"Point","coordinates":[7.096168,50.71431]},"properties":{"gbif_id":5017636989,"dataset":"NABU|naturgucker","basis_of_record":"HUMAN_OBSERVATION","event_date":"2007-05-06T00:00","year":2007,"coordinate_uncertainty_m":250.0,"license":"http://creativecommons.org/licenses/by/4.0/legalcode","automated_identification":false,"url":"https://www.gbif.org/occurrence/5017636989"}},{"type":"Feature","geometry":{"type":"Point","coordinates":[7.041406,50.724902]},"properties":{"gbif_id":2554707236,"dataset":"Flora von Deutschland (Phanerogamen)","basis_of_record":"HUMAN_OBSERVATION","event_date":null,"year":null,"coordinate_uncertainty_m":3228.0,"license":"http://creativecommons.org/licenses/by-nc/4.0/legalcode","automated_identification":false,"url":"https://www.gbif.org/occurrence/2554707236"}}]}