{"type":"FeatureCollection","features":[{"type":"Feature","geometry":{"type":"MultiPolygon","coordinates":[[[[7.101229,50.757674],[7.102947,50.758587],[7.103548,50.758869],[7.103608,50.759004],[7.104198,50.759385],[7.104755,50.759559],[7.105313,50.759796],[7.106383,50.760074],[7.108093,50.760453],[7.1099,50.760751],[7.110243,50.760882],[7.110375,50.76107],[7.110429,50.761528],[7.110673,50.762263],[7.111,50.763509],[7.111158,50.763624],[7.111423,50.763442],[7.11203,50.764515],[7.112485,50.765149],[7.112906,50.765576],[7.113181,50.765826],[7.113353,50.765905],[7.113685,50.766144],[7.115534,50.767601],[7.115892,50.767759],[7.116091,50.767793],[7.118237,50.768007],[7.120488,50.768506],[7.121202,50.768706],[7.121431,50.768794],[7.122091,50.769138],[7.122351,50.769316],[7.123089,50.769947],[7.123478,50.770213],[7.124197,50.770628],[7.124428,50.770833],[7.124619,50.771083],[7.124576,50.771649],[7.124765,50.771854],[7.124834,50.772375],[7.12484,50.772618],[7.124211,50.772417],[7.123992,50.772716],[7.124477,50.772873],[7.124779,50.773023],[7.124814,50.77331],[7.12462,50.773483],[7.124339,50.77362],[7.125365,50.774402],[7.125687,50.774228],[7.126362,50.774626],[7.126666,50.774856],[7.127061,50.775383],[7.127449,50.776161],[7.128547,50.779387],[7.128711,50.779727],[7.129549,50.780366],[7.129804,50.780346],[7.13017,50.780243],[7.130855,50.779841],[7.132114,50.779712],[7.133699,50.779607],[7.134233,50.779988],[7.135183,50.780545],[7.134989,50.780754],[7.135866,50.781231],[7.135564,50.781647],[7.136889,50.782506],[7.137176,50.782638],[7.13773,50.782678],[7.138325,50.782645],[7.138685,50.782291],[7.139157,50.782457],[7.139006,50.782692],[7.13922,50.782726],[7.13956,50.782714],[7.140072,50.782799],[7.140282,50.782662],[7.141153,50.782348],[7.141593,50.782334],[7.142288,50.782373],[7.142743,50.782431],[7.143115,50.782526],[7.143387,50.78264],[7.143686,50.7827],[7.143884,50.782672],[7.144282,50.782713],[7.145318,50.782747],[7.14575,50.782446],[7.146465,50.782125],[7.146575,50.78198],[7.146716,50.781925],[7.147606,50.781799],[7.148371,50.781782],[7.149011,50.78183],[7.149395,50.781907],[7.149496,50.781987],[7.149994,50.783753],[7.15013,50.784687],[7.150095,50.785568],[7.150044,50.78582],[7.149841,50.786209],[7.149628,50.786211],[7.149531,50.786284],[7.149464,50.786446],[7.14957,50.786697],[7.149759,50.786911],[7.149837,50.78718],[7.149744,50.78745],[7.149565,50.787659],[7.149708,50.787702],[7.149206,50.788067],[7.147803,50.788683],[7.147401,50.789074],[7.147251,50.789327],[7.147247,50.789704],[7.147457,50.790197],[7.147738,50.790661],[7.148074,50.791063],[7.14877,50.791685],[7.150005,50.792886],[7.150511,50.793286],[7.152093,50.794151],[7.152925,50.794557],[7.155431,50.795503],[7.156317,50.795755],[7.156653,50.796749],[7.157012,50.798076],[7.156504,50.79818],[7.154434,50.798201],[7.153537,50.798084],[7.152482,50.797869],[7.149583,50.79708],[7.149005,50.797202],[7.149007,50.797292],[7.146652,50.79727],[7.145086,50.797052],[7.143942,50.796668],[7.140454,50.794976],[7.139821,50.794596],[7.138967,50.793921],[7.138848,50.793679],[7.138791,50.79306],[7.138688,50.792935],[7.138673,50.792306],[7.138464,50.791301],[7.138317,50.791086],[7.138085,50.790882],[7.136793,50.790229],[7.136231,50.789875],[7.134709,50.789117],[7.134291,50.788806],[7.133903,50.788621],[7.13317,50.788197],[7.132699,50.788067],[7.132187,50.788045],[7.130912,50.788084],[7.129989,50.788048],[7.128993,50.787878],[7.127651,50.787513],[7.127351,50.787417],[7.125548,50.786176],[7.125045,50.785902],[7.124755,50.785609],[7.124489,50.78518],[7.124273,50.784445],[7.124174,50.784472],[7.124186,50.783762],[7.124278,50.783456],[7.124273,50.783285],[7.124103,50.782693],[7.123941,50.782443],[7.123389,50.781873],[7.121563,50.779625],[7.121478,50.779662],[7.120483,50.77835],[7.119976,50.777914],[7.119659,50.777693],[7.119006,50.777672],[7.118114,50.777708],[7.117715,50.777631],[7.116529,50.777246],[7.113664,50.776618],[7.112135,50.776093],[7.111587,50.77572],[7.111311,50.775417],[7.111125,50.775365],[7.110926,50.775358],[7.110492,50.774967],[7.109931,50.774648],[7.109129,50.774296],[7.108028,50.77392],[7.106829,50.773554],[7.106911,50.773419],[7.105483,50.77301],[7.105115,50.77304],[7.105103,50.773121],[7.104763,50.773133],[7.104639,50.772676],[7.104566,50.772587],[7.103859,50.772665],[7.103677,50.772775],[7.10343,50.771914],[7.103154,50.770425],[7.103281,50.769812],[7.103376,50.769596],[7.104427,50.767869],[7.103578,50.767328],[7.101247,50.768276],[7.099643,50.768822],[7.096659,50.769713],[7.096548,50.769795],[7.094941,50.770205],[7.094038,50.770403],[7.093956,50.770511],[7.093801,50.77054],[7.093833,50.770692],[7.093635,50.770739],[7.093595,50.770838],[7.093698,50.771611],[7.092962,50.771644],[7.092978,50.771734],[7.09267,50.771917],[7.092546,50.772053],[7.091362,50.772352],[7.089147,50.772804],[7.086349,50.773226],[7.085755,50.773267],[7.085287,50.77328],[7.084393,50.773208],[7.083738,50.773115],[7.082639,50.772784],[7.082484,50.772821],[7.082097,50.772636],[7.082208,50.772554],[7.081131,50.771926],[7.080252,50.771304],[7.079111,50.770398],[7.078344,50.769731],[7.076791,50.768282],[7.077717,50.767961],[7.077886,50.767798],[7.078859,50.767443],[7.079272,50.767214],[7.080939,50.766576],[7.08387,50.765247],[7.085789,50.764151],[7.0864,50.763869],[7.086723,50.763647],[7.087649,50.763235],[7.088361,50.762969],[7.089159,50.762535],[7.089402,50.762435],[7.089674,50.76238],[7.090229,50.76207],[7.090509,50.761952],[7.0906,50.761963],[7.090833,50.761828],[7.091869,50.761478],[7.092085,50.761355],[7.092311,50.761324],[7.092825,50.761141],[7.093863,50.760843],[7.097475,50.759523],[7.099544,50.758617],[7.100441,50.758141],[7.101229,50.757674]],[[7.084322,50.769541],[7.086612,50.769861],[7.088775,50.770227],[7.090858,50.770172],[7.092446,50.769609],[7.093193,50.769395],[7.094721,50.768068],[7.095745,50.767016],[7.097314,50.765598],[7.097637,50.764867],[7.096719,50.764417],[7.096655,50.764706],[7.09588,50.764299],[7.095732,50.763429],[7.0946,50.763484],[7.094136,50.763651],[7.091652,50.764717],[7.088523,50.766103],[7.084671,50.768701],[7.084322,50.769541]]]]},"properties":{"id":"DE-5208-301","name":"Siegaue und Siegmuendung","habitat_types":"Hartholz-Auenwälder(91F0), Erlen-Eschen- und Weichholz-Auenwälder(91E0), Fließgewässer mit Unterwasservegetation(3260), Flüsse mit Schlammbänken mit Vegetation des Chenopodion rubri p.p. und des Bidention p.p.(3270), Glatthafer- und Wiesenknopf-Silgenwiesen(6510), Natürliche eutrophe Seen und Altarme(3150)","threats":"Die Verletzlichkeit ist unter 6.1 Einflüsse und Nutzungen hinreichend beschrieben.","caretakers":"Stadt Bonn","factsheet_url":"https://www.wms.nrw.de/html/7680015/DE-5208-301.html"}},{"type":"Feature","geometry":{"type":"MultiPolygon","coordinates":[[[[7.074927,50.69486],[7.074584,50.694711],[7.075017,50.694491],[7.075626,50.693874],[7.075928,50.693476],[7.0757,50.693379],[7.076048,50.69316],[7.075645,50.692858],[7.075598,50.692643],[7.075424,50.692473],[7.075434,50.692285],[7.075319,50.692223],[7.075284,50.691908],[7.076099,50.69164],[7.076447,50.691412],[7.076373,50.691278],[7.076593,50.690997],[7.076673,50.690772],[7.076893,50.690509],[7.077153,50.690075],[7.07729,50.689912],[7.077586,50.689873],[7.076862,50.688514],[7.07683,50.688361],[7.077378,50.686315],[7.077917,50.686382],[7.078126,50.685607],[7.078466,50.685658],[7.078629,50.685333],[7.078179,50.684834],[7.077795,50.684765],[7.077802,50.683839],[7.079527,50.68376],[7.079606,50.683535],[7.08041,50.682808],[7.080168,50.682721],[7.08032,50.682566],[7.080049,50.682479],[7.080612,50.681719],[7.080726,50.681754],[7.081013,50.680735],[7.081458,50.680389],[7.081607,50.680082],[7.082568,50.680028],[7.082635,50.679884],[7.082053,50.67917],[7.081674,50.679309],[7.081689,50.679353],[7.08148,50.679463],[7.08131,50.679474],[7.080916,50.678974],[7.080338,50.677802],[7.080366,50.677181],[7.080285,50.67613],[7.08092,50.67607],[7.08014,50.675376],[7.078158,50.675296],[7.07822,50.674918],[7.07818,50.674397],[7.077927,50.673878],[7.077773,50.673322],[7.077784,50.673169],[7.077582,50.672982],[7.0768,50.672836],[7.076356,50.672598],[7.07468,50.672307],[7.073987,50.672323],[7.074287,50.671808],[7.073804,50.671731],[7.074652,50.669844],[7.074594,50.669764],[7.07411,50.669634],[7.074206,50.669489],[7.073935,50.669419],[7.073989,50.669302],[7.073804,50.669259],[7.073656,50.669593],[7.073157,50.669409],[7.073295,50.669255],[7.072681,50.669027],[7.072845,50.668764],[7.072405,50.668679],[7.072322,50.668796],[7.072264,50.668698],[7.071795,50.668603],[7.071412,50.668571],[7.0708,50.668397],[7.070375,50.668382],[7.070203,50.668294],[7.063846,50.670546],[7.06537,50.672249],[7.064474,50.672635],[7.065658,50.673703],[7.065268,50.673994],[7.064247,50.674516],[7.062817,50.67381],[7.062862,50.672667],[7.062614,50.671088],[7.062285,50.670326],[7.061386,50.668708],[7.062157,50.668422],[7.051877,50.657161],[7.04899,50.653915],[7.048595,50.653334],[7.047822,50.651615],[7.04656,50.649577],[7.045958,50.649186],[7.045952,50.647658],[7.046117,50.646812],[7.046409,50.645946],[7.047404,50.644301],[7.047845,50.643785],[7.048897,50.64275],[7.050648,50.641386],[7.053085,50.639746],[7.055581,50.638195],[7.057598,50.636747],[7.058598,50.635947],[7.059318,50.635275],[7.060767,50.633716],[7.061149,50.633092],[7.06228,50.633109],[7.063739,50.633275],[7.064605,50.633429],[7.065231,50.633585],[7.066754,50.634093],[7.066715,50.635468],[7.068111,50.635303],[7.06821,50.63532],[7.068353,50.63477],[7.06862,50.634687],[7.069985,50.63507],[7.072687,50.635764],[7.073392,50.636297],[7.073681,50.636573],[7.075194,50.637207],[7.075373,50.638248],[7.074751,50.639494],[7.074868,50.640302],[7.07517,50.641108],[7.075548,50.641599],[7.077581,50.639603],[7.078919,50.638772],[7.079325,50.638598],[7.080421,50.638291],[7.080908,50.63799],[7.080864,50.63728],[7.079074,50.636901],[7.081348,50.636206],[7.082612,50.637704],[7.082391,50.637931],[7.082529,50.63962],[7.082659,50.640347],[7.082038,50.640388],[7.081937,50.642763],[7.081767,50.643978],[7.081759,50.644868],[7.081691,50.644958],[7.082187,50.646257],[7.081897,50.646557],[7.081735,50.647502],[7.081745,50.647925],[7.083292,50.64818],[7.083634,50.64708],[7.083882,50.64679],[7.087097,50.648261],[7.087011,50.648846],[7.087252,50.648862],[7.087965,50.649107],[7.089451,50.649795],[7.090153,50.650184],[7.090552,50.650324],[7.091324,50.650658],[7.093306,50.651395],[7.094358,50.651618],[7.095821,50.652522],[7.09745,50.653855],[7.098572,50.655283],[7.099722,50.656054],[7.101068,50.656769],[7.101895,50.657076],[7.102023,50.657084],[7.103578,50.657689],[7.103761,50.657625],[7.104635,50.656924],[7.106085,50.656641],[7.106219,50.656936],[7.107454,50.657113],[7.107715,50.657381],[7.108088,50.657638],[7.108666,50.657524],[7.109036,50.65824],[7.108771,50.658404],[7.108778,50.65871],[7.10856,50.659036],[7.108467,50.659297],[7.108589,50.659692],[7.108662,50.659754],[7.108626,50.660033],[7.10735,50.66053],[7.107984,50.661001],[7.108276,50.661412],[7.108843,50.662053],[7.109661,50.662549],[7.111098,50.662913],[7.111485,50.663143],[7.111645,50.66333],[7.121531,50.659729],[7.12278,50.660491],[7.123293,50.660665],[7.122423,50.660943],[7.121845,50.661039],[7.121551,50.661177],[7.122685,50.661849],[7.122724,50.662289],[7.122944,50.662638],[7.123149,50.662923],[7.123493,50.663109],[7.124001,50.66305],[7.125372,50.663019],[7.127524,50.663097],[7.128004,50.663074],[7.128816,50.662725],[7.129443,50.662934],[7.130155,50.662532],[7.130341,50.66262],[7.13076,50.662418],[7.130529,50.662205],[7.129511,50.661639],[7.128759,50.661521],[7.128615,50.661441],[7.128655,50.661324],[7.128878,50.661187],[7.128028,50.661141],[7.128792,50.66054],[7.130253,50.661317],[7.130211,50.661354],[7.130859,50.661815],[7.131413,50.662484],[7.131562,50.662806],[7.132169,50.664544],[7.132331,50.664812],[7.133336,50.665998],[7.133964,50.666828],[7.132877,50.666928],[7.132996,50.66717],[7.133946,50.668428],[7.133447,50.668847],[7.133194,50.668921],[7.132459,50.66953],[7.130194,50.668851],[7.129875,50.669133],[7.131852,50.670148],[7.131339,50.670611],[7.131051,50.671001],[7.130852,50.670958],[7.130549,50.671275],[7.130061,50.671585],[7.128432,50.67206],[7.128321,50.67216],[7.129734,50.672703],[7.130375,50.672877],[7.130849,50.673178],[7.131302,50.673165],[7.13161,50.673045],[7.131891,50.672988],[7.132351,50.672696],[7.132717,50.672603],[7.13268,50.672846],[7.133151,50.672985],[7.133508,50.673152],[7.133783,50.673419],[7.133975,50.673741],[7.134257,50.673693],[7.134372,50.673764],[7.133955,50.674065],[7.134772,50.674533],[7.134334,50.67514],[7.134208,50.675186],[7.134024,50.675179],[7.134142,50.675384],[7.133949,50.675602],[7.133879,50.675621],[7.133884,50.676403],[7.133792,50.676691],[7.133611,50.676837],[7.133317,50.676948],[7.133215,50.676832],[7.133508,50.676685],[7.13308,50.676501],[7.132936,50.676403],[7.132272,50.676445],[7.131804,50.676414],[7.13159,50.676344],[7.130926,50.67636],[7.130904,50.67663],[7.130013,50.676638],[7.130022,50.67644],[7.129701,50.676632],[7.129434,50.676707],[7.129193,50.676682],[7.128996,50.676729],[7.128789,50.676956],[7.128593,50.677021],[7.128073,50.677178],[7.127536,50.677193],[7.126552,50.67687],[7.126515,50.676501],[7.126599,50.675871],[7.126528,50.675854],[7.126167,50.676145],[7.125886,50.676229],[7.125476,50.676233],[7.124766,50.676141],[7.123245,50.675832],[7.122919,50.675817],[7.122454,50.675884],[7.12206,50.675978],[7.121862,50.675971],[7.121691,50.675919],[7.121518,50.675794],[7.121249,50.675761],[7.121108,50.675789],[7.121028,50.676006],[7.120979,50.676348],[7.120886,50.676565],[7.120542,50.676981],[7.120362,50.677136],[7.120311,50.677379],[7.119241,50.677605],[7.118746,50.677637],[7.117161,50.677616],[7.116173,50.676493],[7.111244,50.676279],[7.098269,50.678039],[7.097258,50.677769],[7.087942,50.67747],[7.08762,50.678867],[7.087412,50.680235],[7.08714,50.681343],[7.086091,50.681272],[7.084802,50.681797],[7.084414,50.682169],[7.084367,50.682565],[7.084052,50.683017],[7.083898,50.683738],[7.083719,50.683955],[7.083631,50.684406],[7.083689,50.684495],[7.083644,50.684963],[7.083726,50.685465],[7.083724,50.685987],[7.083596,50.686599],[7.083423,50.687042],[7.08331,50.687663],[7.08329,50.688041],[7.082877,50.688557],[7.08248,50.688489],[7.082231,50.68877],[7.081733,50.688648],[7.081561,50.689153],[7.08122,50.689103],[7.081183,50.689346],[7.081624,50.689432],[7.081452,50.689964],[7.081697,50.690141],[7.081188,50.690164],[7.081235,50.690352],[7.08152,50.690448],[7.081587,50.690897],[7.081312,50.691268],[7.081302,50.691412],[7.081474,50.691519],[7.081405,50.6916],[7.081548,50.691653],[7.080995,50.692251],[7.080785,50.692361],[7.080544,50.6923],[7.080183,50.692609],[7.080751,50.692694],[7.08063,50.693001],[7.080357,50.693408],[7.080178,50.693634],[7.079623,50.694125],[7.079426,50.694154],[7.078998,50.694032],[7.079289,50.692519],[7.079161,50.691243],[7.079961,50.691587],[7.080057,50.691469],[7.080442,50.691564],[7.080565,50.691374],[7.080864,50.691452],[7.080946,50.691344],[7.078896,50.690832],[7.07904,50.692143],[7.078047,50.692063],[7.078028,50.692467],[7.078113,50.69306],[7.078093,50.693456],[7.078016,50.693789],[7.078813,50.69397],[7.078735,50.694277],[7.078579,50.694269],[7.078435,50.694783],[7.078634,50.694808],[7.078653,50.695015],[7.07874,50.695113],[7.078117,50.695739],[7.07789,50.695714],[7.077657,50.69604],[7.077618,50.696166],[7.078066,50.696584],[7.078126,50.696728],[7.078131,50.696961],[7.077716,50.697379],[7.077032,50.698401],[7.07662,50.699564],[7.076758,50.700031],[7.076688,50.700669],[7.076697,50.701101],[7.076805,50.702071],[7.076663,50.702674],[7.076656,50.702998],[7.076745,50.703186],[7.076703,50.703204],[7.075871,50.702736],[7.075628,50.70263],[7.075297,50.702381],[7.075092,50.702096],[7.074526,50.702092],[7.072952,50.701989],[7.073021,50.70314],[7.073292,50.704468],[7.073236,50.705124],[7.073292,50.705681],[7.073506,50.706398],[7.073559,50.706847],[7.073797,50.707349],[7.072436,50.707289],[7.072383,50.707425],[7.0721,50.707436],[7.071604,50.708636],[7.070841,50.708706],[7.070808,50.708527],[7.070926,50.708094],[7.071052,50.708039],[7.071107,50.707967],[7.070595,50.707863],[7.070374,50.708117],[7.069837,50.708167],[7.069761,50.707934],[7.069719,50.707934],[7.070138,50.707086],[7.070204,50.706258],[7.070461,50.705707],[7.070874,50.704562],[7.070079,50.70447],[7.070062,50.704371],[7.070171,50.704155],[7.070261,50.703749],[7.070238,50.70339],[7.06998,50.70261],[7.069883,50.702099],[7.069916,50.701667],[7.070173,50.700514],[7.070152,50.700235],[7.070106,50.700056],[7.069943,50.699743],[7.069546,50.699108],[7.069469,50.698821],[7.069464,50.698605],[7.069528,50.698335],[7.069638,50.698145],[7.069694,50.698145],[7.069629,50.698388],[7.070529,50.698757],[7.07057,50.698712],[7.07203,50.699391],[7.073035,50.698159],[7.073501,50.69749],[7.073575,50.697021],[7.073981,50.696191],[7.074167,50.695685],[7.074291,50.695541],[7.074133,50.695416],[7.074442,50.695305],[7.074927,50.69486]],[[7.040296,50.688585],[7.039869,50.688481],[7.039461,50.688593],[7.03929,50.68854],[7.038883,50.688697],[7.038987,50.688894],[7.03889,50.689011],[7.039079,50.689216],[7.037943,50.689703],[7.037621,50.689211],[7.036984,50.68919],[7.036745,50.689255],[7.036535,50.689392],[7.036408,50.689393],[7.036276,50.68917],[7.037093,50.689009],[7.037656,50.688861],[7.037682,50.688752],[7.038259,50.688621],[7.038318,50.688747],[7.038584,50.688601],[7.038963,50.688471],[7.038529,50.688017],[7.03712,50.688299],[7.036977,50.688255],[7.035287,50.688603],[7.035298,50.688459],[7.034547,50.688412],[7.034486,50.688232],[7.034244,50.688181],[7.034457,50.687568],[7.034287,50.687533],[7.034696,50.686846],[7.034581,50.686739],[7.034622,50.686676],[7.035426,50.686561],[7.035732,50.686325],[7.034706,50.684707],[7.03315,50.681502],[7.03184,50.678583],[7.033721,50.67791],[7.034568,50.677813],[7.038621,50.677462],[7.038987,50.67736],[7.041577,50.676797],[7.043217,50.676108],[7.043514,50.676106],[7.043643,50.676141],[7.043886,50.675617],[7.044518,50.674802],[7.044269,50.674382],[7.043691,50.672571],[7.041956,50.66962],[7.026747,50.664991],[7.026463,50.664921],[7.026397,50.665155],[7.025624,50.665378],[7.025102,50.665419],[7.024472,50.664435],[7.024856,50.664549],[7.024873,50.664],[7.025954,50.663631],[7.024312,50.660976],[7.023705,50.661044],[7.024422,50.658242],[7.025894,50.654381],[7.026438,50.65274],[7.030149,50.651764],[7.030712,50.650976],[7.031449,50.650431],[7.031468,50.649972],[7.030727,50.649709],[7.030875,50.649384],[7.030906,50.648871],[7.030412,50.648273],[7.029975,50.648322],[7.028865,50.647352],[7.029353,50.646368],[7.033309,50.644957],[7.033482,50.645117],[7.035366,50.643366],[7.037008,50.644106],[7.037735,50.644379],[7.036672,50.644864],[7.038049,50.645751],[7.038342,50.645578],[7.039893,50.646688],[7.040565,50.645747],[7.040234,50.645489],[7.040809,50.645277],[7.044666,50.649594],[7.04535,50.650477],[7.045703,50.651086],[7.04606,50.6519],[7.046705,50.65291],[7.049041,50.655586],[7.051649,50.658368],[7.053632,50.660417],[7.056982,50.664073],[7.058157,50.665384],[7.059654,50.667168],[7.060223,50.667936],[7.060766,50.668803],[7.061401,50.670002],[7.061825,50.671257],[7.062052,50.67254],[7.061981,50.673763],[7.061882,50.674412],[7.061751,50.674862],[7.061174,50.676225],[7.060668,50.677039],[7.058982,50.679436],[7.057739,50.681416],[7.057278,50.682283],[7.056864,50.683393],[7.055911,50.683806],[7.042886,50.688589],[7.042498,50.688341],[7.042258,50.688361],[7.041884,50.688086],[7.041488,50.68808],[7.041348,50.68818],[7.04135,50.688252],[7.041211,50.68837],[7.040718,50.688456],[7.040296,50.688585]],[[7.045315,50.648887],[7.04358,50.647823],[7.043633,50.647661],[7.04246,50.646395],[7.042949,50.646112],[7.044212,50.645067],[7.045636,50.644263],[7.046137,50.643872],[7.046787,50.643246],[7.047656,50.642276],[7.048088,50.641966],[7.048423,50.641793],[7.049068,50.641562],[7.048639,50.641961],[7.048939,50.642121],[7.048024,50.64292],[7.047016,50.644008],[7.046413,50.644876],[7.045871,50.645924],[7.045401,50.647672],[7.045304,50.648392],[7.045315,50.648887]]]]},"properties":{"id":"DE-5308-303","name":"Waldreservat Kottenforst","habitat_types":"Natürliche eutrophe Seen und Altarme(3150), Glatthafer- und Wiesenknopf-Silgenwiesen(6510), Erlen-Eschen- und Weichholz-Auenwälder(91E0), Waldmeister-Buchenwald(9130), Hainsimsen-Buchenwald(9110), Stieleichen-Hainbuchenwald(9160)","threats":"Abgas-, Abwasser- und Lärmemmission der parallel verlaufenden Autobahn- und Strassentrasse. Entwässerung seit etwa 300 Jahren.","caretakers":"Rhein-Sieg-Kreis, Stadt Bonn","factsheet_url":"https://www.wms.nrw.de/html/7680015/DE-5308-303.html"}},{"type":"Feature","geometry":{"type":"MultiPolygon","coordinates":[[[[7.205814,50.664048],[7.20586,50.663857],[7.206112,50.663819],[7.20641,50.663381],[7.207159,50.662605],[7.207106,50.662582],[7.207142,50.662516],[7.206911,50.662435],[7.206967,50.662258],[7.207159,50.662081],[7.207539,50.661898],[7.207842,50.66238],[7.207888,50.662728],[7.208951,50.662711],[7.209192,50.662599],[7.20966,50.662524],[7.2097,50.662551],[7.210025,50.662539],[7.210392,50.662375],[7.21115,50.662242],[7.211751,50.66228],[7.212062,50.66234],[7.21235,50.662447],[7.212667,50.662369],[7.212791,50.662258],[7.212765,50.662171],[7.212222,50.661638],[7.212107,50.661547],[7.211661,50.661313],[7.211127,50.661146],[7.211321,50.66104],[7.211604,50.660948],[7.212002,50.660926],[7.212066,50.660854],[7.212209,50.660789],[7.212451,50.660727],[7.211976,50.660298],[7.212608,50.66012],[7.21262,50.660048],[7.212676,50.660012],[7.212877,50.660145],[7.213131,50.660106],[7.213551,50.660515],[7.213738,50.660612],[7.214251,50.66076],[7.213878,50.661671],[7.214376,50.661765],[7.214445,50.66171],[7.214687,50.661789],[7.215045,50.661399],[7.215149,50.661586],[7.215465,50.661781],[7.215694,50.661877],[7.21635,50.662077],[7.217106,50.662357],[7.218017,50.662572],[7.218221,50.662238],[7.218231,50.662093],[7.217506,50.66193],[7.218243,50.661464],[7.218012,50.661269],[7.217845,50.661387],[7.217527,50.661112],[7.217764,50.660984],[7.217128,50.660451],[7.216848,50.660562],[7.216474,50.660314],[7.215902,50.660634],[7.215845,50.660599],[7.2159,50.660554],[7.215785,50.660474],[7.215729,50.660511],[7.215584,50.660377],[7.215766,50.660285],[7.215563,50.66009],[7.215297,50.6602],[7.215054,50.660095],[7.215095,50.660059],[7.215022,50.659978],[7.215695,50.65972],[7.215492,50.659551],[7.215943,50.659492],[7.215914,50.659466],[7.216379,50.659371],[7.216478,50.659388],[7.216758,50.659286],[7.216875,50.65942],[7.217239,50.659281],[7.217465,50.659279],[7.217693,50.659321],[7.217861,50.658735],[7.218334,50.658973],[7.218446,50.658918],[7.218552,50.658647],[7.219005,50.658642],[7.219294,50.658352],[7.220266,50.658216],[7.220208,50.657605],[7.220309,50.657667],[7.220531,50.657503],[7.221015,50.657659],[7.220961,50.657723],[7.221987,50.658036],[7.222043,50.657999],[7.222356,50.658095],[7.222571,50.658209],[7.222862,50.657973],[7.222135,50.657737],[7.222428,50.657582],[7.222816,50.65729],[7.223485,50.656887],[7.224048,50.656261],[7.224258,50.65616],[7.22434,50.656078],[7.224349,50.65588],[7.224304,50.655764],[7.224487,50.655726],[7.224584,50.655662],[7.225285,50.655439],[7.22497,50.655262],[7.225441,50.654889],[7.225494,50.654754],[7.226245,50.654269],[7.227012,50.653857],[7.226982,50.653821],[7.227348,50.653718],[7.227494,50.653384],[7.227977,50.653469],[7.229025,50.65353],[7.22963,50.653406],[7.230026,50.653384],[7.230209,50.652816],[7.229204,50.652791],[7.229174,50.652719],[7.229621,50.652499],[7.229784,50.652263],[7.229414,50.652168],[7.22951,50.652059],[7.228869,50.651886],[7.228965,50.651741],[7.228822,50.651698],[7.22943,50.65117],[7.229613,50.651105],[7.230301,50.651475],[7.230619,50.651202],[7.231072,50.651216],[7.231458,50.650843],[7.231469,50.650726],[7.23176,50.650489],[7.231555,50.650231],[7.230829,50.65004],[7.231259,50.649182],[7.231587,50.648738],[7.232344,50.649018],[7.232687,50.648636],[7.233074,50.648839],[7.233153,50.648614],[7.233357,50.648297],[7.233579,50.648142],[7.233585,50.647845],[7.233777,50.647618],[7.233835,50.647653],[7.234247,50.647721],[7.234445,50.647728],[7.234673,50.647788],[7.234717,50.647851],[7.2349,50.647849],[7.235434,50.647708],[7.235589,50.64768],[7.235618,50.647724],[7.235969,50.647622],[7.236408,50.647662],[7.236491,50.647562],[7.236754,50.647901],[7.236781,50.648395],[7.236859,50.648655],[7.237046,50.648779],[7.237489,50.648433],[7.2372,50.648202],[7.237354,50.648137],[7.237687,50.647882],[7.237639,50.647667],[7.237809,50.647692],[7.23803,50.647501],[7.238083,50.647357],[7.238235,50.64722],[7.238463,50.646741],[7.238481,50.646345],[7.238375,50.646095],[7.238287,50.645988],[7.238187,50.645935],[7.238045,50.645919],[7.237806,50.645975],[7.237674,50.645797],[7.237194,50.645811],[7.236867,50.645742],[7.236917,50.645499],[7.23703,50.645489],[7.236545,50.644802],[7.236814,50.64479],[7.237009,50.644689],[7.237036,50.644644],[7.236978,50.644572],[7.237033,50.644518],[7.237058,50.644383],[7.237543,50.644566],[7.237599,50.644557],[7.237668,50.644466],[7.237653,50.64443],[7.237567,50.644404],[7.237437,50.64428],[7.238238,50.64411],[7.238521,50.644133],[7.238612,50.643827],[7.239464,50.643944],[7.239372,50.644214],[7.239671,50.644319],[7.239958,50.644478],[7.240445,50.644158],[7.240357,50.644051],[7.240832,50.643839],[7.240687,50.643697],[7.240612,50.643527],[7.24022,50.643127],[7.239946,50.642941],[7.2401,50.642858],[7.24046,50.643133],[7.240985,50.643721],[7.24123,50.643889],[7.241899,50.644062],[7.242521,50.644091],[7.242841,50.64442],[7.242828,50.644447],[7.243619,50.645491],[7.243708,50.645669],[7.243765,50.645678],[7.243739,50.645759],[7.243799,50.645902],[7.243502,50.645905],[7.243237,50.646034],[7.243305,50.646465],[7.24325,50.646519],[7.243284,50.646726],[7.243469,50.646787],[7.243568,50.646777],[7.243721,50.646703],[7.244242,50.646599],[7.243911,50.645865],[7.244422,50.645914],[7.244333,50.645771],[7.244458,50.645679],[7.244142,50.645485],[7.244846,50.645379],[7.244083,50.644326],[7.244294,50.644306],[7.24425,50.644243],[7.244135,50.644155],[7.243907,50.644094],[7.244028,50.643868],[7.243674,50.643818],[7.243909,50.643636],[7.243894,50.643591],[7.243823,50.643601],[7.243254,50.642905],[7.243071,50.642943],[7.24276,50.642947],[7.242206,50.642863],[7.241824,50.642309],[7.241764,50.642157],[7.24159,50.641997],[7.241416,50.641855],[7.241337,50.642081],[7.241096,50.642038],[7.241201,50.641732],[7.240645,50.641567],[7.2404,50.641938],[7.239307,50.641752],[7.239254,50.641905],[7.23874,50.641713],[7.238697,50.641677],[7.238664,50.641498],[7.238423,50.641473],[7.238461,50.641293],[7.238431,50.641231],[7.2378,50.640887],[7.237568,50.641222],[7.237497,50.641214],[7.237375,50.641395],[7.237203,50.641307],[7.237155,50.641109],[7.237112,50.641083],[7.237012,50.641048],[7.236631,50.64107],[7.236489,50.641036],[7.236445,50.640964],[7.236758,50.64052],[7.236659,50.640512],[7.236667,50.640288],[7.23743,50.64027],[7.238879,50.640534],[7.239148,50.640549],[7.239704,50.640732],[7.239889,50.640766],[7.24032,50.641031],[7.240621,50.641171],[7.240808,50.641295],[7.240997,50.6415],[7.241633,50.640972],[7.241718,50.640962],[7.241737,50.641151],[7.24202,50.641148],[7.24275,50.640951],[7.244399,50.640772],[7.244929,50.640496],[7.245349,50.640339],[7.245734,50.640488],[7.246249,50.640158],[7.24609,50.640043],[7.246395,50.639797],[7.245838,50.639075],[7.245864,50.638958],[7.245919,50.638912],[7.24552,50.6388],[7.244923,50.638689],[7.244752,50.638637],[7.244594,50.638522],[7.24457,50.638163],[7.244605,50.637866],[7.244508,50.637399],[7.244946,50.637412],[7.245046,50.637438],[7.245079,50.637096],[7.245534,50.637172],[7.245542,50.636957],[7.245676,50.636677],[7.245685,50.635957],[7.244564,50.635789],[7.243722,50.635466],[7.242444,50.635803],[7.241509,50.636244],[7.241368,50.636255],[7.241131,50.63641],[7.240642,50.636631],[7.240306,50.636734],[7.23977,50.636793],[7.238749,50.63666],[7.238762,50.636606],[7.238632,50.6365],[7.238418,50.63643],[7.238354,50.63617],[7.239298,50.636025],[7.239719,50.635904],[7.239483,50.635538],[7.23979,50.635409],[7.239873,50.635327],[7.240056,50.635307],[7.240149,50.635072],[7.240092,50.635055],[7.240119,50.635019],[7.23992,50.634976],[7.240001,50.634831],[7.240705,50.634185],[7.240933,50.634264],[7.241001,50.634146],[7.240787,50.634086],[7.240854,50.63395],[7.241096,50.63401],[7.241151,50.633947],[7.24128,50.633999],[7.241494,50.633557],[7.241125,50.63348],[7.241463,50.63291],[7.241985,50.632338],[7.242689,50.631692],[7.242732,50.631701],[7.243326,50.631209],[7.243743,50.630386],[7.243502,50.630362],[7.243578,50.630028],[7.244496,50.630019],[7.245187,50.629948],[7.245235,50.629606],[7.244962,50.628917],[7.244956,50.628701],[7.245035,50.628476],[7.245561,50.627517],[7.245661,50.627552],[7.24605,50.627314],[7.247255,50.627427],[7.247858,50.62671],[7.249025,50.627048],[7.249136,50.626939],[7.249561,50.626989],[7.250197,50.627],[7.25055,50.626969],[7.250772,50.626823],[7.251578,50.626823],[7.251513,50.627049],[7.251532,50.627219],[7.251854,50.627674],[7.252206,50.627599],[7.252568,50.627388],[7.252609,50.627325],[7.252846,50.627205],[7.252943,50.627132],[7.252913,50.627079],[7.253038,50.626996],[7.25322,50.626931],[7.253313,50.626706],[7.253572,50.62637],[7.253642,50.626342],[7.253682,50.626243],[7.253933,50.626097],[7.254059,50.626068],[7.254086,50.626014],[7.25417,50.625986],[7.254168,50.625896],[7.254237,50.625869],[7.254249,50.625788],[7.25432,50.625769],[7.254345,50.625679],[7.254457,50.625606],[7.254607,50.625433],[7.254859,50.625323],[7.255191,50.625058],[7.25529,50.625057],[7.255386,50.624957],[7.255499,50.624965],[7.255695,50.624864],[7.256003,50.624762],[7.256058,50.624707],[7.256311,50.624669],[7.256409,50.624614],[7.25656,50.62445],[7.256729,50.62443],[7.257111,50.624462],[7.257185,50.62456],[7.257488,50.6248],[7.257745,50.624914],[7.257804,50.625012],[7.258059,50.625009],[7.258145,50.625053],[7.258314,50.62506],[7.258471,50.625122],[7.258612,50.625093],[7.258841,50.625181],[7.259407,50.625228],[7.260493,50.625154],[7.260989,50.625184],[7.261519,50.625466],[7.262373,50.6257],[7.262448,50.625852],[7.262548,50.625887],[7.262638,50.626065],[7.262737,50.626064],[7.262824,50.626171],[7.262923,50.62617],[7.262955,50.626323],[7.263069,50.626339],[7.26307,50.626393],[7.263243,50.626508],[7.263389,50.626669],[7.263364,50.626786],[7.263449,50.626812],[7.263453,50.626956],[7.263583,50.627053],[7.263598,50.627107],[7.263885,50.627257],[7.264015,50.627372],[7.264258,50.627477],[7.264371,50.627449],[7.265007,50.627451],[7.265202,50.627368],[7.265546,50.627005],[7.265699,50.626913],[7.265781,50.626795],[7.266158,50.626621],[7.266281,50.626493],[7.266423,50.626492],[7.266577,50.626445],[7.267172,50.626502],[7.267552,50.626453],[7.267991,50.626475],[7.268315,50.626444],[7.268514,50.626487],[7.268683,50.626467],[7.268953,50.626509],[7.269291,50.626479],[7.270266,50.626468],[7.270766,50.62666],[7.270912,50.626847],[7.271433,50.627273],[7.271573,50.627236],[7.272241,50.627372],[7.27295,50.627473],[7.2736,50.627447],[7.274036,50.627362],[7.274588,50.62741],[7.274815,50.627452],[7.2755,50.627669],[7.276206,50.627671],[7.276518,50.627712],[7.27689,50.62787],[7.27695,50.627986],[7.277079,50.628048],[7.277743,50.628058],[7.278151,50.627964],[7.27914,50.627962],[7.280177,50.628157],[7.280614,50.628108],[7.281111,50.628192],[7.281297,50.628271],[7.281707,50.628276],[7.281835,50.628337],[7.282019,50.628317],[7.28229,50.628431],[7.282604,50.628517],[7.282634,50.628598],[7.282905,50.628676],[7.282992,50.628765],[7.28326,50.628744],[7.283488,50.628822],[7.283814,50.628864],[7.283887,50.628926],[7.284368,50.628956],[7.284556,50.629107],[7.284911,50.629157],[7.285376,50.629134],[7.285491,50.629187],[7.285717,50.629184],[7.285961,50.629325],[7.286697,50.629362],[7.287755,50.629782],[7.289533,50.630212],[7.28989,50.630352],[7.290115,50.630304],[7.290728,50.630504],[7.291423,50.630586],[7.291499,50.630792],[7.291968,50.630877],[7.293053,50.630739],[7.294247,50.630978],[7.294961,50.631248],[7.295643,50.631376],[7.295869,50.631391],[7.296156,50.631532],[7.296793,50.631588],[7.297107,50.631665],[7.297614,50.632136],[7.297506,50.632326],[7.297607,50.632397],[7.297711,50.632575],[7.297775,50.632835],[7.298009,50.633138],[7.298343,50.63344],[7.298499,50.633483],[7.298844,50.633677],[7.299359,50.633896],[7.2997,50.633973],[7.299874,50.634133],[7.300053,50.634446],[7.300523,50.634594],[7.301182,50.63491],[7.301199,50.635018],[7.301628,50.635184],[7.301762,50.635416],[7.301989,50.635467],[7.302935,50.635933],[7.303156,50.636272],[7.303485,50.636412],[7.303789,50.636661],[7.304076,50.636801],[7.304208,50.636971],[7.304366,50.637059],[7.304685,50.63737],[7.304861,50.637593],[7.30515,50.637814],[7.305122,50.638354],[7.306008,50.639684],[7.306069,50.639863],[7.302217,50.64369],[7.301416,50.643358],[7.30074,50.642961],[7.300569,50.642891],[7.299889,50.64235],[7.299746,50.642289],[7.299519,50.642264],[7.29834,50.643608],[7.297719,50.643615],[7.297554,50.6443],[7.29768,50.644281],[7.298025,50.646021],[7.296811,50.646079],[7.296586,50.646127],[7.29646,50.646191],[7.296365,50.646309],[7.295217,50.646726],[7.295004,50.647205],[7.29527,50.648155],[7.29597,50.64892],[7.297883,50.650598],[7.297641,50.650547],[7.297404,50.650657],[7.293642,50.652695],[7.293976,50.653006],[7.297376,50.654281],[7.297364,50.654335],[7.29603,50.655725],[7.295077,50.656545],[7.296263,50.656999],[7.295839,50.657516],[7.297514,50.65774],[7.29777,50.658807],[7.297655,50.659249],[7.297825,50.659256],[7.29696,50.660722],[7.297051,50.660937],[7.297078,50.661422],[7.296118,50.663024],[7.296041,50.663807],[7.296507,50.663811],[7.296638,50.663935],[7.296724,50.66397],[7.297021,50.663976],[7.297395,50.663675],[7.2978,50.663509],[7.29775,50.663743],[7.298174,50.66372],[7.297141,50.664748],[7.296919,50.664885],[7.296667,50.664978],[7.294967,50.665383],[7.294956,50.666021],[7.295407,50.665954],[7.295389,50.66634],[7.295474,50.666357],[7.295494,50.666564],[7.295566,50.666608],[7.294102,50.666858],[7.293893,50.666959],[7.293566,50.666936],[7.293539,50.666981],[7.292557,50.666749],[7.2921,50.666575],[7.291817,50.666578],[7.291411,50.666726],[7.291158,50.667835],[7.290826,50.668099],[7.289562,50.667906],[7.289406,50.668951],[7.290061,50.669105],[7.289744,50.669379],[7.289087,50.669674],[7.288677,50.670191],[7.288414,50.670427],[7.289299,50.670714],[7.289103,50.67131],[7.289227,50.671677],[7.289312,50.671703],[7.289676,50.671555],[7.289922,50.671777],[7.289591,50.672086],[7.289514,50.672348],[7.289694,50.672723],[7.290191,50.672799],[7.290444,50.672751],[7.291114,50.672906],[7.291268,50.67285],[7.291615,50.672612],[7.292907,50.672265],[7.293704,50.671933],[7.29447,50.671502],[7.29458,50.671384],[7.294781,50.671489],[7.294683,50.671544],[7.294561,50.671717],[7.29442,50.671736],[7.294336,50.671782],[7.294324,50.671845],[7.294267,50.671837],[7.293989,50.672011],[7.292465,50.672657],[7.292048,50.672922],[7.29169,50.673304],[7.291528,50.673584],[7.29144,50.673963],[7.291549,50.673827],[7.291554,50.674006],[7.291645,50.67423],[7.291822,50.674489],[7.292401,50.674986],[7.292461,50.675084],[7.292598,50.67546],[7.292249,50.675617],[7.292572,50.676045],[7.294794,50.675544],[7.295122,50.675657],[7.296127,50.675664],[7.296458,50.675867],[7.296634,50.676081],[7.297869,50.676238],[7.298043,50.676919],[7.297574,50.677338],[7.297253,50.677521],[7.296843,50.677517],[7.29575,50.677394],[7.295331,50.677587],[7.294906,50.677565],[7.29449,50.677875],[7.294127,50.678563],[7.294489,50.679368],[7.295591,50.680353],[7.296253,50.681281],[7.296477,50.681701],[7.297189,50.681334],[7.297701,50.680914],[7.297953,50.680822],[7.297909,50.680759],[7.298995,50.680118],[7.299421,50.679663],[7.299602,50.679563],[7.300134,50.679359],[7.300783,50.678785],[7.301548,50.678309],[7.301761,50.678343],[7.30159,50.678794],[7.30115,50.679285],[7.30096,50.679556],[7.300071,50.68016],[7.299726,50.680478],[7.299254,50.680816],[7.298966,50.681143],[7.299341,50.681903],[7.299105,50.682058],[7.299193,50.682192],[7.299538,50.682368],[7.30006,50.682326],[7.300768,50.682327],[7.301052,50.682387],[7.301126,50.682485],[7.3011,50.682575],[7.300907,50.682748],[7.299912,50.683605],[7.2998,50.68366],[7.300223,50.684122],[7.299823,50.684487],[7.29976,50.684784],[7.299821,50.684927],[7.300094,50.685068],[7.30032,50.685083],[7.30121,50.685001],[7.30182,50.685058],[7.302077,50.685154],[7.302394,50.685357],[7.303293,50.686138],[7.303283,50.686282],[7.303186,50.686364],[7.303016,50.686357],[7.302493,50.685877],[7.301569,50.685717],[7.300193,50.685597],[7.298958,50.685449],[7.298563,50.685489],[7.298366,50.685546],[7.298031,50.68572],[7.297907,50.685838],[7.29784,50.685974],[7.297261,50.687536],[7.296501,50.689225],[7.296318,50.689794],[7.29571,50.691338],[7.295394,50.691683],[7.295042,50.692262],[7.294439,50.691954],[7.294328,50.692036],[7.294118,50.692111],[7.293122,50.691402],[7.293528,50.691245],[7.293639,50.691163],[7.293831,50.690963],[7.293871,50.690846],[7.293744,50.690362],[7.294009,50.689693],[7.294106,50.68962],[7.294124,50.689252],[7.293899,50.688787],[7.293095,50.688373],[7.293008,50.688284],[7.29288,50.688277],[7.292812,50.688385],[7.29196,50.68826],[7.291416,50.688059],[7.291158,50.687918],[7.290621,50.687951],[7.290509,50.687997],[7.29039,50.687783],[7.290295,50.687415],[7.290115,50.687579],[7.289666,50.68717],[7.289502,50.686885],[7.289499,50.686759],[7.288658,50.686552],[7.288575,50.686607],[7.287611,50.686025],[7.286428,50.686775],[7.285779,50.686314],[7.285024,50.687186],[7.285236,50.687183],[7.285537,50.687288],[7.285911,50.687518],[7.286129,50.68774],[7.286067,50.688055],[7.286192,50.688477],[7.286251,50.688566],[7.286683,50.688831],[7.286814,50.688991],[7.28714,50.69003],[7.28758,50.69007],[7.287762,50.690005],[7.288146,50.690064],[7.288315,50.690044],[7.28844,50.689953],[7.289515,50.690472],[7.289503,50.690517],[7.288892,50.690946],[7.29039,50.691927],[7.290378,50.69199],[7.290182,50.692064],[7.290083,50.692056],[7.289342,50.691903],[7.288327,50.691527],[7.287073,50.691191],[7.286234,50.691065],[7.284654,50.690732],[7.284032,50.690244],[7.283663,50.690203],[7.2828,50.690213],[7.282291,50.690237],[7.282151,50.690283],[7.282146,50.690112],[7.282782,50.68953],[7.281621,50.689021],[7.27999,50.688374],[7.279992,50.687924],[7.27951,50.687894],[7.279401,50.686987],[7.279294,50.686692],[7.279188,50.685938],[7.279024,50.685634],[7.278884,50.685662],[7.278546,50.685225],[7.27842,50.685263],[7.278309,50.685363],[7.278246,50.685642],[7.278082,50.685311],[7.278103,50.685059],[7.27827,50.684941],[7.277432,50.684842],[7.277578,50.684463],[7.276345,50.68391],[7.275816,50.683709],[7.275885,50.683645],[7.275833,50.681704],[7.275741,50.681462],[7.275075,50.680382],[7.275426,50.68027],[7.275579,50.68017],[7.275733,50.680123],[7.275835,50.679681],[7.275773,50.678963],[7.274393,50.679212],[7.274112,50.678756],[7.274327,50.678349],[7.271923,50.67789],[7.271747,50.678171],[7.271649,50.678199],[7.27044,50.677457],[7.270493,50.67733],[7.27046,50.677142],[7.26991,50.677202],[7.269461,50.675778],[7.274029,50.675179],[7.274177,50.674378],[7.273001,50.674318],[7.272988,50.674346],[7.27145,50.673994],[7.271127,50.674078],[7.271084,50.674034],[7.270659,50.67402],[7.26914,50.673848],[7.268827,50.673789],[7.26807,50.673509],[7.267529,50.673902],[7.267276,50.674498],[7.266366,50.675883],[7.266253,50.675911],[7.263949,50.67546],[7.264043,50.675261],[7.263645,50.675211],[7.263229,50.675],[7.262647,50.674908],[7.262524,50.674558],[7.262324,50.674462],[7.261853,50.674332],[7.261667,50.674235],[7.261391,50.673968],[7.261708,50.673659],[7.260024,50.67259],[7.258688,50.671813],[7.258132,50.672215],[7.257981,50.671848],[7.257199,50.671676],[7.256796,50.671959],[7.255406,50.67183],[7.254992,50.671691],[7.254781,50.671738],[7.254933,50.672123],[7.254637,50.672171],[7.25402,50.672358],[7.253783,50.672513],[7.253579,50.672812],[7.253513,50.673514],[7.253434,50.67374],[7.253211,50.673868],[7.252859,50.673917],[7.252719,50.67452],[7.253116,50.674552],[7.25335,50.674846],[7.253495,50.674952],[7.254356,50.675438],[7.254329,50.675465],[7.25482,50.675864],[7.255325,50.676209],[7.255583,50.676341],[7.255611,50.676314],[7.25631,50.67654],[7.256851,50.67666],[7.257502,50.67668],[7.257488,50.677202],[7.25763,50.677218],[7.258016,50.677385],[7.258726,50.677494],[7.259055,50.677616],[7.259716,50.677987],[7.259203,50.67837],[7.259699,50.67841],[7.26024,50.678521],[7.260822,50.678595],[7.261679,50.678892],[7.262114,50.678779],[7.26227,50.678786],[7.26256,50.679044],[7.262815,50.679581],[7.262801,50.679599],[7.261979,50.679536],[7.261791,50.679403],[7.261519,50.679289],[7.260522,50.679021],[7.260077,50.67881],[7.259898,50.678974],[7.259598,50.678878],[7.259141,50.679243],[7.258395,50.678864],[7.257868,50.678735],[7.257471,50.678685],[7.257405,50.678884],[7.257093,50.67886],[7.256825,50.679412],[7.256911,50.679447],[7.256337,50.680208],[7.257048,50.680335],[7.257275,50.680351],[7.257618,50.680473],[7.257763,50.680606],[7.257905,50.681162],[7.257875,50.681621],[7.257811,50.681864],[7.257594,50.682244],[7.257223,50.682644],[7.257057,50.68332],[7.257925,50.68349],[7.257869,50.683518],[7.260798,50.684052],[7.260984,50.684113],[7.260918,50.684303],[7.261657,50.684421],[7.26167,50.684888],[7.261716,50.68504],[7.261623,50.685257],[7.261486,50.685411],[7.261462,50.685573],[7.261738,50.685858],[7.261842,50.686028],[7.261928,50.686072],[7.26251,50.686146],[7.262739,50.686243],[7.263368,50.687],[7.263599,50.687195],[7.263054,50.687426],[7.262581,50.687737],[7.262412,50.687766],[7.261647,50.687747],[7.261329,50.68856],[7.261161,50.688615],[7.260241,50.688616],[7.259893,50.688818],[7.259743,50.689044],[7.259664,50.689261],[7.259554,50.689379],[7.257199,50.690762],[7.254765,50.691822],[7.253133,50.692702],[7.252484,50.692269],[7.252021,50.69186],[7.25142,50.692145],[7.251332,50.692039],[7.25058,50.692523],[7.250482,50.692533],[7.25045,50.692408],[7.249633,50.692533],[7.249664,50.69265],[7.249256,50.692726],[7.248961,50.692837],[7.248016,50.692955],[7.247654,50.692653],[7.247947,50.692479],[7.247769,50.692176],[7.247423,50.691937],[7.247151,50.691832],[7.247108,50.691787],[7.247117,50.691616],[7.247061,50.691608],[7.246703,50.691989],[7.246499,50.692306],[7.246442,50.692316],[7.246227,50.692201],[7.24522,50.692131],[7.245139,50.692258],[7.245064,50.692124],[7.24518,50.691664],[7.244384,50.691547],[7.244732,50.690266],[7.24415,50.69021],[7.244118,50.690057],[7.244503,50.689621],[7.24395,50.689573],[7.243651,50.689514],[7.243784,50.689207],[7.244011,50.689213],[7.244008,50.689096],[7.243469,50.689066],[7.243177,50.688719],[7.242671,50.688859],[7.242377,50.688979],[7.242038,50.689001],[7.24077,50.689221],[7.239717,50.689547],[7.238577,50.689766],[7.238229,50.689437],[7.237903,50.688901],[7.237679,50.688436],[7.237412,50.688519],[7.237427,50.688555],[7.237146,50.688648],[7.236987,50.688506],[7.236677,50.688563],[7.236989,50.689135],[7.237388,50.689742],[7.237376,50.68985],[7.236516,50.689428],[7.235604,50.688098],[7.235518,50.688063],[7.235443,50.687893],[7.235231,50.687904],[7.235022,50.687493],[7.235046,50.687349],[7.234496,50.687418],[7.233816,50.68738],[7.23449,50.687705],[7.234591,50.687785],[7.234709,50.687964],[7.234809,50.688026],[7.234598,50.688046],[7.234648,50.688333],[7.233941,50.688385],[7.234165,50.688805],[7.234136,50.688806],[7.2342,50.689084],[7.233649,50.689099],[7.233743,50.689466],[7.233941,50.689455],[7.234063,50.689786],[7.234082,50.689984],[7.233687,50.690006],[7.23365,50.690222],[7.233197,50.690236],[7.233178,50.690039],[7.233093,50.690048],[7.233076,50.689914],[7.23237,50.689984],[7.232434,50.690271],[7.231853,50.69025],[7.231823,50.69017],[7.231201,50.690194],[7.231401,50.690804],[7.231535,50.691063],[7.231281,50.691101],[7.231252,50.691066],[7.230249,50.691121],[7.230213,50.6914],[7.230143,50.691419],[7.229477,50.691372],[7.229424,50.691535],[7.229168,50.691465],[7.229229,50.691653],[7.229235,50.691869],[7.228922,50.691819],[7.228814,50.692008],[7.228536,50.692209],[7.228766,50.692351],[7.22846,50.692534],[7.227976,50.692979],[7.227279,50.693364],[7.227026,50.693466],[7.22586,50.693784],[7.225217,50.693566],[7.224672,50.694345],[7.225215,50.694564],[7.223629,50.696684],[7.225092,50.696902],[7.226566,50.696968],[7.226611,50.698163],[7.2263,50.698175],[7.226262,50.698877],[7.226233,50.698868],[7.226085,50.699679],[7.223933,50.699683],[7.223458,50.700479],[7.222812,50.701196],[7.222698,50.701189],[7.222408,50.702549],[7.220786,50.702773],[7.219815,50.702981],[7.219011,50.703115],[7.219133,50.703446],[7.219106,50.703483],[7.218545,50.703677],[7.219023,50.704104],[7.218768,50.704088],[7.218391,50.704308],[7.218239,50.704445],[7.218383,50.704551],[7.218559,50.704783],[7.218699,50.704736],[7.219182,50.705325],[7.219085,50.705416],[7.219401,50.705592],[7.219669,50.705553],[7.219896,50.706126],[7.218369,50.706727],[7.217362,50.707205],[7.215266,50.707721],[7.21477,50.707708],[7.213852,50.707781],[7.21313,50.707806],[7.210313,50.70779],[7.210115,50.707801],[7.209791,50.707895],[7.209568,50.708032],[7.209416,50.708177],[7.208679,50.709246],[7.208048,50.710016],[7.208049,50.71007],[7.20768,50.710569],[7.20713,50.711213],[7.207147,50.71132],[7.207235,50.711427],[7.207256,50.711697],[7.20693,50.712249],[7.204742,50.71193],[7.202964,50.711633],[7.202712,50.711735],[7.201332,50.712037],[7.200654,50.712116],[7.200792,50.712492],[7.200783,50.712708],[7.200194,50.712938],[7.199516,50.712981],[7.197431,50.713416],[7.196905,50.713314],[7.196766,50.713432],[7.196617,50.713685],[7.196477,50.713741],[7.19638,50.713823],[7.196165,50.71431],[7.195401,50.714318],[7.194574,50.714632],[7.193729,50.714839],[7.193911,50.715313],[7.193712,50.71527],[7.193747,50.715558],[7.193678,50.715594],[7.19433,50.716181],[7.193649,50.716709],[7.193249,50.716579],[7.192648,50.716315],[7.191845,50.715901],[7.191124,50.716528],[7.189111,50.718104],[7.18603,50.717767],[7.185864,50.717382],[7.185737,50.717402],[7.185736,50.717366],[7.184353,50.717523],[7.183262,50.717535],[7.181515,50.717849],[7.179557,50.718273],[7.17818,50.718701],[7.177507,50.718995],[7.178782,50.720708],[7.177306,50.722827],[7.178391,50.723176],[7.178763,50.723325],[7.179151,50.723536],[7.179308,50.72358],[7.179171,50.724354],[7.17903,50.724347],[7.178885,50.725373],[7.177288,50.725488],[7.176401,50.725686],[7.176145,50.725661],[7.176147,50.725724],[7.176318,50.725768],[7.176738,50.726168],[7.178478,50.727202],[7.179064,50.727421],[7.17959,50.727505],[7.180611,50.726974],[7.180764,50.726855],[7.181032,50.726808],[7.181295,50.726571],[7.181645,50.726433],[7.181472,50.726848],[7.181074,50.727347],[7.181103,50.727382],[7.181665,50.727215],[7.182252,50.726912],[7.182729,50.726727],[7.18305,50.726535],[7.183504,50.726558],[7.183967,50.7264],[7.18418,50.726389],[7.18439,50.726315],[7.184873,50.726355],[7.185196,50.726253],[7.185408,50.726242],[7.185717,50.726158],[7.18593,50.726147],[7.185904,50.726237],[7.185708,50.726356],[7.185228,50.726423],[7.185578,50.726797],[7.186419,50.726465],[7.187255,50.725917],[7.187642,50.726102],[7.187036,50.726765],[7.186551,50.727201],[7.184621,50.728156],[7.183319,50.728762],[7.182719,50.729119],[7.181432,50.72977],[7.179933,50.730415],[7.178634,50.731165],[7.178234,50.731592],[7.176603,50.732615],[7.176092,50.733699],[7.175749,50.734152],[7.175595,50.734252],[7.175584,50.73436],[7.176048,50.734805],[7.176771,50.735364],[7.177761,50.736451],[7.177144,50.736691],[7.17774,50.737278],[7.178874,50.736745],[7.179738,50.735649],[7.180438,50.735866],[7.181015,50.735141],[7.182417,50.735684],[7.182218,50.736226],[7.182804,50.736454],[7.18403,50.737322],[7.185094,50.736817],[7.185431,50.736697],[7.18543,50.736652],[7.184499,50.73569],[7.18409,50.7352],[7.184371,50.735107],[7.184356,50.734496],[7.184808,50.734465],[7.184759,50.734204],[7.185124,50.734075],[7.185947,50.735262],[7.185751,50.735336],[7.186519,50.736569],[7.187312,50.736552],[7.187706,50.736476],[7.187902,50.736348],[7.18797,50.736257],[7.188076,50.735959],[7.18842,50.73556],[7.188511,50.735245],[7.188758,50.734928],[7.189088,50.733962],[7.188978,50.733559],[7.188682,50.733032],[7.187581,50.732656],[7.186803,50.732664],[7.186163,50.73259],[7.186565,50.732244],[7.186522,50.732218],[7.187035,50.73179],[7.187599,50.732243],[7.187987,50.732463],[7.188086,50.732462],[7.188244,50.732524],[7.188299,50.732469],[7.188908,50.732463],[7.188807,50.731826],[7.188657,50.731486],[7.188471,50.730867],[7.188916,50.729973],[7.188831,50.729434],[7.188943,50.729352],[7.188295,50.728963],[7.18881,50.728607],[7.189141,50.728802],[7.189237,50.728657],[7.189656,50.728428],[7.189836,50.728273],[7.189534,50.728088],[7.190174,50.727659],[7.19049,50.727835],[7.190736,50.728039],[7.19025,50.728395],[7.190047,50.728802],[7.189652,50.72939],[7.189601,50.730748],[7.189403,50.731298],[7.189172,50.731705],[7.189184,50.732163],[7.18963,50.731871],[7.190225,50.731317],[7.190797,50.730978],[7.191339,50.730559],[7.191739,50.730151],[7.192371,50.729362],[7.192682,50.72935],[7.192853,50.729402],[7.193241,50.729623],[7.193131,50.729768],[7.19231,50.730316],[7.191797,50.730752],[7.191273,50.731306],[7.192017,50.731604],[7.191645,50.732039],[7.190476,50.731719],[7.189938,50.732318],[7.189926,50.732381],[7.189623,50.732743],[7.189587,50.732987],[7.189708,50.7333],[7.19133,50.733589],[7.191071,50.733987],[7.19092,50.734142],[7.190949,50.734177],[7.19122,50.734273],[7.191404,50.734244],[7.191689,50.734322],[7.191761,50.734385],[7.191128,50.734535],[7.190792,50.734709],[7.19044,50.734776],[7.190203,50.734922],[7.190253,50.735236],[7.190383,50.735343],[7.19033,50.735487],[7.191119,50.736423],[7.191053,50.736621],[7.190769,50.736588],[7.190698,50.737119],[7.19023,50.737097],[7.190168,50.736909],[7.189289,50.736864],[7.189042,50.736633],[7.188031,50.736985],[7.187475,50.737395],[7.187268,50.737631],[7.186949,50.737895],[7.186908,50.737967],[7.187295,50.738691],[7.187334,50.739122],[7.187507,50.739238],[7.187934,50.739305],[7.187115,50.739421],[7.186947,50.739486],[7.186819,50.739487],[7.186638,50.739615],[7.186589,50.739921],[7.186478,50.739994],[7.183458,50.740456],[7.181843,50.74103],[7.181655,50.74087],[7.181095,50.741155],[7.18117,50.741289],[7.180156,50.741533],[7.180067,50.741408],[7.179799,50.741455],[7.179728,50.741429],[7.179601,50.741448],[7.179377,50.74101],[7.179054,50.741103],[7.178982,50.74105],[7.178756,50.741088],[7.178302,50.741084],[7.177724,50.741171],[7.177143,50.741168],[7.176593,50.741272],[7.176024,50.741188],[7.175698,50.741191],[7.175292,50.741384],[7.174646,50.741579],[7.174391,50.7416],[7.17432,50.741574],[7.17405,50.741576],[7.173375,50.741763],[7.173137,50.741873],[7.172831,50.74211],[7.172327,50.742349],[7.172133,50.742513],[7.171908,50.742605],[7.170704,50.742042],[7.170813,50.741843],[7.170216,50.741759],[7.170188,50.741786],[7.169524,50.741847],[7.16808,50.741897],[7.167378,50.741014],[7.167432,50.740924],[7.166733,50.740176],[7.166702,50.740041],[7.166367,50.739685],[7.165897,50.739033],[7.16421,50.738969],[7.16414,50.738988],[7.163718,50.741401],[7.159,50.741412],[7.159042,50.741376],[7.156315,50.740522],[7.156906,50.739788],[7.156263,50.739579],[7.15669,50.739062],[7.158245,50.739496],[7.159487,50.739897],[7.160363,50.738639],[7.159878,50.738509],[7.157838,50.738502],[7.156508,50.738569],[7.15648,50.738597],[7.155337,50.738788],[7.155224,50.73878],[7.154664,50.738489],[7.153654,50.738301],[7.154177,50.737127],[7.15328,50.736947],[7.150643,50.736839],[7.150398,50.737245],[7.150169,50.737167],[7.149044,50.736926],[7.148972,50.736873],[7.148498,50.736033],[7.14848,50.735862],[7.14892,50.735345],[7.149184,50.7351],[7.149212,50.735109],[7.149309,50.735009],[7.149393,50.73499],[7.149551,50.735051],[7.149617,50.734862],[7.149502,50.7348],[7.14993,50.734355],[7.150734,50.733628],[7.151124,50.733364],[7.151571,50.733117],[7.151751,50.732935],[7.151873,50.732718],[7.152081,50.732518],[7.152534,50.732496],[7.152785,50.732367],[7.152854,50.732295],[7.152945,50.731943],[7.153013,50.731853],[7.152981,50.731673],[7.153145,50.73142],[7.153436,50.731192],[7.156043,50.729467],[7.158251,50.728277],[7.158716,50.728182],[7.159452,50.728166],[7.159564,50.728111],[7.159714,50.727876],[7.159638,50.727643],[7.161649,50.727074],[7.16262,50.727397],[7.162811,50.727117],[7.163033,50.726917],[7.164643,50.726155],[7.164946,50.725819],[7.165028,50.725674],[7.165162,50.725367],[7.165224,50.725034],[7.165186,50.724657],[7.165047,50.724182],[7.164943,50.723976],[7.164827,50.723851],[7.164994,50.723769],[7.165735,50.72279],[7.165792,50.722799],[7.166479,50.721956],[7.16797,50.720395],[7.168855,50.71955],[7.169423,50.71905],[7.17009,50.718531],[7.171503,50.717276],[7.17334,50.715432],[7.173809,50.714915],[7.174014,50.714617],[7.174742,50.713755],[7.175225,50.713247],[7.176308,50.71293],[7.176559,50.713368],[7.177715,50.713168],[7.177954,50.713075],[7.178124,50.713092],[7.178297,50.713216],[7.178774,50.713031],[7.178744,50.71296],[7.179711,50.712563],[7.179827,50.712697],[7.179983,50.712695],[7.180012,50.712722],[7.180096,50.712694],[7.180051,50.712569],[7.180305,50.712548],[7.180318,50.712503],[7.180714,50.712481],[7.180705,50.712688],[7.180989,50.712703],[7.18094,50.713036],[7.181253,50.713069],[7.181342,50.712673],[7.181625,50.712679],[7.1816,50.712805],[7.181926,50.712819],[7.181927,50.712864],[7.182112,50.71288],[7.182216,50.712538],[7.182016,50.712441],[7.182198,50.712376],[7.182552,50.712364],[7.183191,50.712447],[7.183165,50.712537],[7.183449,50.712579],[7.183423,50.712669],[7.183793,50.71272],[7.184113,50.712519],[7.184236,50.712329],[7.184364,50.712345],[7.185038,50.71215],[7.18575,50.711738],[7.186041,50.71151],[7.185794,50.711252],[7.185513,50.711309],[7.185493,50.711102],[7.185563,50.711065],[7.185561,50.710976],[7.185503,50.710922],[7.185529,50.710841],[7.185034,50.71028],[7.185116,50.710171],[7.185587,50.710328],[7.185546,50.710382],[7.185732,50.710452],[7.185691,50.710534],[7.186301,50.71059],[7.186251,50.710285],[7.186334,50.710204],[7.185959,50.709938],[7.18642,50.70969],[7.185383,50.709],[7.185466,50.708891],[7.185619,50.708799],[7.185887,50.708752],[7.185884,50.708635],[7.186153,50.70865],[7.18635,50.708576],[7.18662,50.708618],[7.186713,50.708384],[7.186922,50.708238],[7.186168,50.708093],[7.186369,50.707677],[7.186654,50.707728],[7.186753,50.707718],[7.18683,50.707421],[7.187499,50.707558],[7.187292,50.707227],[7.187089,50.707005],[7.187068,50.706735],[7.18817,50.706679],[7.188293,50.706498],[7.187568,50.70637],[7.187649,50.706208],[7.187567,50.705768],[7.187632,50.705534],[7.188115,50.70561],[7.188255,50.705527],[7.188572,50.705209],[7.188886,50.705287],[7.189078,50.705069],[7.189007,50.705061],[7.189088,50.70489],[7.187625,50.704689],[7.18768,50.704643],[7.187935,50.70465],[7.188099,50.704414],[7.188309,50.704304],[7.188535,50.704284],[7.188658,50.704139],[7.188598,50.703987],[7.187804,50.703923],[7.187897,50.703688],[7.18798,50.703606],[7.187977,50.70349],[7.188099,50.703272],[7.188166,50.702598],[7.188562,50.702584],[7.188599,50.70289],[7.188821,50.703301],[7.189104,50.703289],[7.189086,50.703137],[7.189681,50.703148],[7.189841,50.702185],[7.189882,50.702149],[7.190121,50.702092],[7.190208,50.702145],[7.190301,50.702495],[7.190481,50.702871],[7.190596,50.702941],[7.190953,50.703073],[7.191209,50.703124],[7.191562,50.703102],[7.192012,50.702972],[7.192986,50.702297],[7.193703,50.70157],[7.194285,50.701061],[7.194426,50.701041],[7.194554,50.701076],[7.194331,50.700629],[7.194096,50.70029],[7.193951,50.700156],[7.193476,50.699855],[7.194207,50.699668],[7.194322,50.699721],[7.194543,50.69953],[7.194256,50.699353],[7.194409,50.699243],[7.194523,50.699296],[7.19476,50.699132],[7.194956,50.699058],[7.194997,50.698995],[7.19484,50.698942],[7.195051,50.698877],[7.195422,50.698442],[7.195533,50.698378],[7.19549,50.698342],[7.195557,50.698207],[7.195187,50.698112],[7.195311,50.697994],[7.195674,50.697801],[7.195956,50.697744],[7.196366,50.69774],[7.1964,50.697938],[7.196881,50.697942],[7.197078,50.697913],[7.197406,50.697999],[7.197338,50.698081],[7.197538,50.69816],[7.197842,50.698426],[7.197983,50.698407],[7.198235,50.698287],[7.198005,50.698173],[7.198013,50.697912],[7.197826,50.697797],[7.197583,50.697719],[7.197757,50.697339],[7.198029,50.697453],[7.198233,50.697137],[7.198583,50.696953],[7.19791,50.696672],[7.1974,50.696624],[7.197517,50.696218],[7.197107,50.696267],[7.197105,50.696168],[7.196836,50.696171],[7.196337,50.696032],[7.196388,50.696922],[7.196077,50.696925],[7.195889,50.696792],[7.195801,50.696676],[7.195688,50.696677],[7.195364,50.696734],[7.194635,50.696994],[7.194562,50.696905],[7.194224,50.696971],[7.193861,50.696615],[7.193496,50.696754],[7.193395,50.696683],[7.194307,50.696341],[7.194161,50.696181],[7.194286,50.69608],[7.194098,50.695929],[7.194459,50.695647],[7.194444,50.695629],[7.194373,50.695621],[7.193558,50.695836],[7.193402,50.695847],[7.192981,50.695986],[7.192797,50.695988],[7.192513,50.695937],[7.193138,50.695445],[7.192621,50.695162],[7.192483,50.695317],[7.192024,50.695061],[7.192036,50.694998],[7.192149,50.694987],[7.192106,50.69497],[7.19247,50.694795],[7.19257,50.69483],[7.19287,50.694405],[7.192895,50.694261],[7.192654,50.694245],[7.192653,50.694209],[7.19227,50.694168],[7.192283,50.694105],[7.192794,50.693605],[7.19224,50.69353],[7.191826,50.693418],[7.191411,50.693233],[7.191123,50.693029],[7.190812,50.69305],[7.190644,50.693124],[7.190186,50.692922],[7.190324,50.692768],[7.190453,50.69282],[7.190588,50.692576],[7.191231,50.69283],[7.191382,50.692622],[7.191407,50.692514],[7.191593,50.692575],[7.191848,50.69259],[7.19183,50.692438],[7.192225,50.69238],[7.192273,50.692047],[7.191363,50.691885],[7.19088,50.691836],[7.190673,50.692018],[7.190509,50.692235],[7.190239,50.692211],[7.190162,50.691942],[7.190455,50.691247],[7.190555,50.690716],[7.190704,50.690462],[7.189938,50.69038],[7.190002,50.690101],[7.189859,50.690057],[7.189631,50.690006],[7.189564,50.690132],[7.189423,50.69017],[7.188926,50.690094],[7.188825,50.690032],[7.188809,50.689951],[7.189702,50.688315],[7.19044,50.686716],[7.190354,50.686681],[7.191391,50.684621],[7.192253,50.683435],[7.193164,50.682535],[7.193952,50.682383],[7.19348,50.682748],[7.193343,50.682911],[7.193276,50.683046],[7.193377,50.683126],[7.193222,50.683164],[7.193,50.683355],[7.193132,50.683506],[7.19362,50.68325],[7.193794,50.683392],[7.193853,50.683508],[7.194024,50.683551],[7.194151,50.683541],[7.194515,50.683384],[7.194557,50.683339],[7.195063,50.683783],[7.195544,50.684318],[7.1972,50.683779],[7.196995,50.683539],[7.197003,50.683278],[7.196786,50.6831],[7.196557,50.682977],[7.196214,50.682863],[7.195361,50.68271],[7.195354,50.682423],[7.195437,50.682332],[7.195756,50.682095],[7.196161,50.681884],[7.196273,50.681847],[7.196922,50.681768],[7.196968,50.681903],[7.1978,50.681786],[7.19852,50.681725],[7.199355,50.681743],[7.199821,50.681694],[7.200048,50.681727],[7.200192,50.681807],[7.200404,50.681814],[7.201258,50.681445],[7.201142,50.681347],[7.200903,50.681395],[7.200535,50.681417],[7.199993,50.681242],[7.199655,50.681282],[7.199228,50.681214],[7.198918,50.681262],[7.198833,50.681245],[7.198831,50.681165],[7.199352,50.680494],[7.199938,50.679643],[7.19992,50.679481],[7.199142,50.679498],[7.198576,50.679477],[7.197739,50.679396],[7.197157,50.679303],[7.197931,50.678594],[7.197957,50.678494],[7.197753,50.678299],[7.197627,50.678336],[7.197817,50.678011],[7.198177,50.677135],[7.198293,50.676702],[7.198399,50.675317],[7.198355,50.675236],[7.198297,50.674661],[7.198797,50.674288],[7.198567,50.674128],[7.199404,50.67367],[7.199119,50.673592],[7.1992,50.673456],[7.198888,50.673415],[7.198598,50.673678],[7.198447,50.673878],[7.198163,50.673836],[7.197848,50.672014],[7.197768,50.671107],[7.197829,50.670171],[7.197971,50.669612],[7.198251,50.668953],[7.198576,50.668375],[7.198903,50.667895],[7.199893,50.666761],[7.200064,50.666822],[7.200186,50.666623],[7.201362,50.665568],[7.202561,50.665466],[7.203242,50.666079],[7.203914,50.665802],[7.204388,50.665564],[7.20453,50.665571],[7.204628,50.665534],[7.204652,50.665381],[7.205707,50.664579],[7.205814,50.664048]],[[7.193491,50.68985],[7.193393,50.689913],[7.193168,50.689961],[7.193472,50.690209],[7.19391,50.690196],[7.193747,50.68991],[7.194402,50.689517],[7.195111,50.689015],[7.19536,50.688779],[7.195399,50.688625],[7.195368,50.688527],[7.194769,50.688353],[7.194728,50.688407],[7.193942,50.688101],[7.19364,50.687924],[7.192183,50.689063],[7.19217,50.689117],[7.192229,50.689215],[7.192886,50.689451],[7.193491,50.68985]]]]},"properties":{"id":"DE-5309-301","name":"Siebengebirge","habitat_types":"Labkraut-Eichen-Hainbuchenwald(9170), Hainsimsen-Buchenwald(9110), Waldmeister-Buchenwald(9130), Stieleichen-Hainbuchenwald(9160), Schlucht- und Hangmischwälder(9180), Erlen-Eschen- und Weichholz-Auenwälder(91E0), Pfeifengraswiesen auf lehmigen oder torfigen Böden(6410), Feuchte Hochstaudenfluren(6430), Silikatschutthalden(8150), Kalkfelsen mit Felsspaltenvegetation(8210), Moorwälder(91D0), Borstgrasrasen(6230), Orchideen-Kalk-Buchenwald(9150), Natürliche eutrophe Seen und Altarme(3150), Lückige basophile oder Kalk-Pionierrasen (Alysso-Sedion albi)(6110), Kalkschutthalden(8160), Glatthafer- und Wiesenknopf-Silgenwiesen(6510), Fließgewässer mit Unterwasservegetation(3260), Silikatfelsen mit Felsspaltenvegetation(8220)","threats":"Verbuschung als unerwünschte Sukzession; Zerstörung alter Weinberg-Trockenmauern; hoher Besucherdruck","caretakers":"Rhein-Sieg-Kreis","factsheet_url":"https://www.wms.nrw.de/html/7680015/DE-5309-301.html"}},{"type":"Feature","geometry":{"type":"MultiPolygon","coordinates":[[[[7.190942,50.645664],[7.192765,50.646733],[7.193672,50.646247],[7.195891,50.643995],[7.197441,50.646019],[7.198277,50.646631],[7.196806,50.647734],[7.195076,50.648651],[7.19455,50.648539],[7.193998,50.648518],[7.193477,50.648613],[7.193113,50.648761],[7.192407,50.649343],[7.191425,50.648517],[7.189809,50.649505],[7.189519,50.64975],[7.188959,50.64999],[7.188551,50.650084],[7.188001,50.650144],[7.187499,50.649861],[7.187271,50.649791],[7.18705,50.649443],[7.187233,50.649396],[7.187063,50.648805],[7.188626,50.648546],[7.18868,50.647889],[7.188513,50.646893],[7.188786,50.645919],[7.18831,50.644998],[7.188013,50.645001],[7.187847,50.644014],[7.188088,50.64349],[7.188702,50.64263],[7.188653,50.642352],[7.189975,50.641529],[7.190712,50.641027],[7.190983,50.641114],[7.190909,50.641565],[7.191901,50.641105],[7.193466,50.6409],[7.19446,50.640539],[7.194843,50.642261],[7.192508,50.64162],[7.191851,50.641888],[7.190596,50.642584],[7.189536,50.644824],[7.18962,50.644823],[7.189651,50.644913],[7.190942,50.645664]]]]},"properties":{"id":"DE-5309-302","name":"Rodderberg","habitat_types":"Silikatfelskuppen mit Pioniervegetation(8230), Glatthafer- und Wiesenknopf-Silgenwiesen(6510), Naturnahe Kalk-Trockenrasen und deren Verbuschungsstadien (Festuco-Brometalia)(* bes. Bestände mit bemerkenswerten Orchideen)(6210)","threats":"Naherholung und Geländesport","caretakers":"Stadt Bonn, Rhein-Sieg-Kreis","factsheet_url":"https://www.wms.nrw.de/html/7680015/DE-5309-302.html"}}]}