{"type":"FeatureCollection","features":[{"type":"Feature","geometry":{"type":"MultiPolygon","coordinates":[[[[7.12585,50.774153],[7.125368,50.774422],[7.124721,50.773884],[7.124228,50.773575],[7.123047,50.772913],[7.122275,50.772548],[7.121542,50.772232],[7.120813,50.77207],[7.119389,50.771804],[7.118611,50.77173],[7.117069,50.771701],[7.114451,50.771431],[7.113113,50.771178],[7.111993,50.770819],[7.111718,50.770719],[7.11128,50.770526],[7.110669,50.770182],[7.109908,50.769648],[7.109528,50.769351],[7.109159,50.76902],[7.108679,50.76851],[7.108348,50.76806],[7.108118,50.767646],[7.107797,50.766898],[7.107476,50.765677],[7.107371,50.764887],[7.107144,50.764202],[7.10692,50.763764],[7.106699,50.763429],[7.106585,50.763298],[7.106276,50.763038],[7.105921,50.762797],[7.105739,50.762698],[7.105155,50.762448],[7.104141,50.762169],[7.103062,50.761911],[7.102334,50.761772],[7.101693,50.761673],[7.100955,50.761603],[7.100063,50.761569],[7.099269,50.761559],[7.098188,50.761584],[7.097568,50.761613],[7.096994,50.761663],[7.096362,50.761752],[7.096082,50.761808],[7.094984,50.762097],[7.09434,50.762302],[7.092008,50.763099],[7.091192,50.763426],[7.090473,50.763744],[7.089119,50.764372],[7.08507,50.766542],[7.084436,50.766865],[7.0838,50.767155],[7.083099,50.767427],[7.082552,50.76761],[7.081761,50.767842],[7.08084,50.768069],[7.079082,50.768417],[7.077202,50.768713],[7.075787,50.767275],[7.076211,50.767099],[7.078915,50.765832],[7.081532,50.764476],[7.086314,50.762097],[7.087599,50.76142],[7.088962,50.760775],[7.089594,50.760505],[7.09063,50.760119],[7.091664,50.759794],[7.093538,50.759175],[7.095394,50.758551],[7.096444,50.758177],[7.097171,50.757876],[7.097993,50.757463],[7.09894,50.756877],[7.099321,50.756613],[7.102783,50.758469],[7.103535,50.758837],[7.10349,50.758912],[7.103516,50.758986],[7.104009,50.759316],[7.104253,50.759444],[7.104736,50.75954],[7.10537,50.759791],[7.105812,50.75988],[7.106785,50.760145],[7.108257,50.760447],[7.109863,50.760706],[7.110016,50.760742],[7.110188,50.760804],[7.110313,50.760884],[7.110379,50.760958],[7.110442,50.761114],[7.110486,50.761474],[7.110742,50.762115],[7.110895,50.762645],[7.110902,50.763434],[7.110838,50.763487],[7.110824,50.763599],[7.110968,50.763731],[7.111314,50.763512],[7.111649,50.763271],[7.11173,50.763771],[7.112175,50.764503],[7.112247,50.764551],[7.112374,50.764691],[7.112407,50.764854],[7.112565,50.765072],[7.11272,50.765413],[7.113091,50.765749],[7.113228,50.76584],[7.113353,50.765884],[7.113783,50.76609],[7.114373,50.766467],[7.114494,50.766622],[7.115522,50.767467],[7.115724,50.767599],[7.115867,50.767665],[7.116008,50.767704],[7.116949,50.767773],[7.117878,50.76791],[7.118101,50.767922],[7.11852,50.767989],[7.11944,50.76817],[7.120071,50.768313],[7.120971,50.768538],[7.121314,50.768646],[7.12177,50.768847],[7.122252,50.76911],[7.123034,50.769715],[7.123167,50.769878],[7.123525,50.770142],[7.123734,50.770267],[7.124174,50.770497],[7.124466,50.770683],[7.124596,50.770745],[7.124726,50.770755],[7.12486,50.770727],[7.124662,50.770792],[7.1246,50.771165],[7.124679,50.771258],[7.124722,50.771347],[7.124772,50.771725],[7.124855,50.771966],[7.124882,50.772148],[7.124933,50.772293],[7.124938,50.77262],[7.124237,50.772426],[7.123731,50.772588],[7.124579,50.772873],[7.124566,50.772911],[7.124888,50.772979],[7.124838,50.773344],[7.124665,50.773449],[7.125518,50.774002],[7.12585,50.774153]]]]},"properties":{"id":"BN-005","name":"NSG Siegmuendung","protection_goal":"Schutzzweck\rDie Festsetzung des ca. 150,87 ha (einschliesslich der anteiligen Wasserflaeche) grossen NSG\rsowie seine Unterschutzstellung erfolgt,\r\r- Aufgrund der besonderen Bedeutung des Gebietes gemaess Paragraph 20 a LG NW zur Erhaltung\r  sowie zur Wiederherstellung folgender natuerlicher Lebensraeume von gemeinschaftlichem Interesse\r  gemaess Anhang I der Richtlinie 92/43/EWG des Rates vom 21. Mai 1992 zur Erhaltung der natuerlichen\r  Lebensraeume und Tiere und Pflanzen:\r\r     - Erlen-Eschen- und Weichholz-Auenwaelder (prioritaerer Lebensraum (91E0),\r\r- Erhaltung und Wiederherstellung des Lebensraumes Erlen-Eschen- und Weichholzauenwald mit\r  seiner typischen Flora und Fauna (z.B. Pirol, ","area":"150.87 ha","in_force_since":1985.0,"factsheet_url":"https://www.wms.nrw.de/html/7680100/BN-005.html"}},{"type":"Feature","geometry":{"type":"MultiPolygon","coordinates":[[[[7.174428,50.746337],[7.174935,50.74631],[7.174704,50.745732],[7.175096,50.745681],[7.175724,50.746017],[7.176116,50.745934],[7.176243,50.745834],[7.177402,50.745492],[7.178005,50.745384],[7.177973,50.745295],[7.17838,50.745225],[7.178307,50.74504],[7.178363,50.745035],[7.178474,50.745091],[7.178784,50.745174],[7.178919,50.745222],[7.179023,50.745291],[7.179319,50.745813],[7.179322,50.745955],[7.179265,50.746122],[7.179173,50.746127],[7.179073,50.746233],[7.178642,50.746177],[7.178595,50.746121],[7.178138,50.746657],[7.177336,50.746547],[7.177115,50.746583],[7.176778,50.74671],[7.176518,50.746733],[7.176102,50.746587],[7.175747,50.746588],[7.175708,50.746536],[7.17478,50.74665],[7.17444,50.746626],[7.174428,50.746337]]]]},"properties":{"id":"BN-006","name":"NSG Weiers Wiesen","protection_goal":"Gemaess LG Paragraph 20,\r\r- Zur Erhaltung folgender Lebensgemeinschaften und Lebensstaetten bestimmter\r  wildwachsender Pflanzen und wildlebender Tierarten inklusive deren Teillebensraeume\r\r  - natuerlicher Auwald mit typischer Krautschicht und Riesenschachtelhalm,\r  - Traubenkirschen-Erlen-Eschenwald, Maedesuess-Hochstaudenflora,\r    Grauweidengebuesch, Zitterpappel-Eichen-Gehoelz, Sumpfseggenried,\r    Gesellschaft der Spitzbluetigen Binse und Pfeifengraswiese im Wechsel,\r    Pfeifengraswiese, Kriechstraussgras-Flammenhahnenfuss-Bestand \r    (Lebensraum für Amphibien und Insekten),\r- Aus wissenschaftlichen, naturgeschichtlichen, landeskundlichen oder erd-\r  geschichtlichen Gruenden,\r- Wegen","area":"3.30 ha","in_force_since":1991.0,"factsheet_url":"https://www.wms.nrw.de/html/7680100/BN-006.html"}},{"type":"Feature","geometry":{"type":"MultiPolygon","coordinates":[[[[7.05605,50.746007],[7.056413,50.74577],[7.056425,50.745727],[7.055991,50.74482],[7.056112,50.744806],[7.056426,50.744937],[7.057058,50.745079],[7.05743,50.745102],[7.057923,50.745107],[7.058565,50.745057],[7.059221,50.7449],[7.060843,50.744357],[7.061627,50.744157],[7.061719,50.744181],[7.061881,50.744135],[7.062693,50.743984],[7.063005,50.743882],[7.063354,50.743724],[7.063421,50.743679],[7.063512,50.74355],[7.063679,50.742938],[7.063314,50.742311],[7.06376,50.742106],[7.063897,50.742132],[7.064111,50.742141],[7.064433,50.742345],[7.064671,50.743384],[7.064999,50.743381],[7.065076,50.743882],[7.064953,50.744207],[7.064356,50.744396],[7.063686,50.744527],[7.063482,50.744645],[7.063404,50.744665],[7.059987,50.745393],[7.059079,50.745572],[7.058284,50.745705],[7.056621,50.745944],[7.05605,50.746007]]]]},"properties":{"id":"BN-007","name":"NSG Duene Tannenbusch","protection_goal":"Die Unterschutzstellung des ca. 7 ha großen Gebietes erfolgt:\rgemäß § 23 Abs. 1 Zif. 1 BNatSchG zur Erhaltung, Entwicklung und Wiederherstellung\r- von Relikten einer Binnendüne spätpleistozänen bis holozänen Ursprungs mit offenen Sandberei-\rchen als Lebensraum für gefährdete Tier- und Pflanzenarten, insbesondere für Arten der Trocken- \rund Magerrasen sowie für Insekten\r- von tiefgründigen, trocknen und nährstoffarmen Sandböden, die wegen ihrer extremen Standortbe-\rdingungen schutzwürdig sind\r\rgemäß § 23 Abs. 1 Zif. 2 BNatSchG aus wissenschaft-lichen, naturgeschichtlichen und landes-\rkundlichen Gründen\r- insbesondere aufgrund der Bedeutung der Binnendüne als spät- bis nacheiszeitliches Zeugni","area":"7.00 ha","in_force_since":1989.0,"factsheet_url":"https://www.wms.nrw.de/html/7680100/BN-007.html"}},{"type":"Feature","geometry":{"type":"MultiPolygon","coordinates":[[[[7.194854,50.743847],[7.194797,50.74388],[7.193854,50.744095],[7.192574,50.744286],[7.192492,50.744473],[7.192357,50.744667],[7.192293,50.744956],[7.192301,50.745036],[7.192407,50.745187],[7.192413,50.745381],[7.192394,50.745391],[7.192475,50.745467],[7.191999,50.745911],[7.191601,50.74659],[7.193011,50.746876],[7.190101,50.747798],[7.189958,50.74687],[7.18757,50.746446],[7.188016,50.745969],[7.188353,50.746045],[7.191473,50.743684],[7.191616,50.743518],[7.192644,50.743713],[7.193118,50.74297],[7.193609,50.74256],[7.193115,50.74242],[7.193152,50.74239],[7.193035,50.742219],[7.193016,50.742025],[7.193149,50.74189],[7.193338,50.741956],[7.193613,50.741668],[7.193555,50.741618],[7.194149,50.740986],[7.194242,50.740783],[7.194414,50.740879],[7.194498,50.740899],[7.194975,50.740676],[7.195489,50.740382],[7.195585,50.74031],[7.195731,50.740484],[7.19589,50.740579],[7.196024,50.740479],[7.196337,50.740625],[7.196278,50.740679],[7.196886,50.740968],[7.196931,50.740902],[7.197135,50.740989],[7.196817,50.741434],[7.196283,50.742103],[7.195881,50.742434],[7.195297,50.742984],[7.194854,50.743847]]]]},"properties":{"id":"BN-008","name":"NSG Wolfsbachtal","protection_goal":"Gemaess LG Paragraph 20,\r\r- Zur Erhaltung folgender Lebensgemeinschaften und Lebensstaetten\r  bestimmter wildwachsender Pflanzen und wildlebender Tierarten\r\r  - natuerlicher Auwald mit typischer Krautschicht und Riesenschachtelhalm),\r  - Erlen- Eschenwaelder mit ihrer typischen Vegetation und Fauna in ihren\r    verschiedenen Entwicklungsstufen/Altersphasen und in ihrer standoertlichen\r    typischen Variationsbreite, inklusive ihrer Vorwaelder, Gebuesch und\r    Staudenfluren,\r- Aus wissenschaftlichen, naturgeschichtlichen, landeskundlichen oder erdgeschichtlichen\r  Gruenden,\r- Wegen der Seltenheit und besonderen Eigenart des Gebietes (Muldental mit steilen\r  Talkanten und Sickerquellsuempfen,","area":"13.00 ha","in_force_since":2004.0,"factsheet_url":"https://www.wms.nrw.de/html/7680100/BN-008.html"}},{"type":"Feature","geometry":{"type":"MultiPolygon","coordinates":[[[[7.161119,50.753745],[7.161492,50.753604],[7.161626,50.753527],[7.162304,50.753234],[7.162784,50.753005],[7.164452,50.75276],[7.164396,50.752212],[7.164353,50.752015],[7.164121,50.751363],[7.163773,50.750562],[7.165388,50.750588],[7.165529,50.750949],[7.165856,50.750905],[7.165876,50.750952],[7.165951,50.750939],[7.165966,50.750981],[7.166335,50.750921],[7.166355,50.750965],[7.166467,50.75094],[7.166656,50.751405],[7.166901,50.751764],[7.166826,50.751782],[7.167708,50.752615],[7.16659,50.753064],[7.167504,50.753802],[7.166767,50.754153],[7.166231,50.75438],[7.166004,50.754497],[7.165817,50.754366],[7.16532,50.754693],[7.165174,50.754554],[7.164845,50.754152],[7.164691,50.753882],[7.164609,50.753631],[7.164577,50.75338],[7.164492,50.753143],[7.163447,50.753311],[7.161816,50.754059],[7.161435,50.753874],[7.161357,50.753859],[7.161119,50.753745]]]]},"properties":{"id":"BN-009","name":"NSG Feuchte Gruenlandbrachen und Maehweiden \"Kohlkaul\"","protection_goal":"Gemaess LG Paragraph 20,\r\r- Zur Erhaltung der Lebensgemeinschaften und Lebensstaetten bestimmter\r  wildwachsender Pflanzen und wildlebender Tierarten,\r- Aus wissenschaftlichen, naturgeschichtlichen, landeskundlichen oder erd-\r  geschichtlichen Gruenden,\r- Wegen der Seltenheit und besonderen Eigenart des Gebietes.","area":"8.50 ha","in_force_since":2004.0,"factsheet_url":"https://www.wms.nrw.de/html/7680100/BN-009.html"}},{"type":"Feature","geometry":{"type":"MultiPolygon","coordinates":[[[[7.176739,50.751867],[7.176582,50.751421],[7.176343,50.750876],[7.177155,50.750326],[7.176626,50.750083],[7.17911,50.748533],[7.180153,50.748978],[7.180429,50.748728],[7.180849,50.748908],[7.181367,50.748352],[7.182645,50.748557],[7.183947,50.748523],[7.182696,50.751762],[7.179821,50.751539],[7.178208,50.750803],[7.178111,50.750831],[7.176739,50.751867]]]]},"properties":{"id":"BN-010","name":"NSG Nasswiesen und Bruchwald \"Kohlkaul\"","protection_goal":"Gemaess LG Paragraph 20,\r\r- Zur Erhaltung folgender Lebensgemeinschaften und Lebensstaetten\r  bestimmter wildwachsender Tierarten\r\r  - Pfeifengraswiesen, Kleinseggenwiesen mit Orchideen und koenigsfarn-\r    reicher Moorbirkenquellsumpf,\r  - Erlen- Eschenwaelder mit ihrer typischen Vegetation und Fauna in ihren\r    verschiedenen Entwicklungsstufen/Altersphasen und in ihrer standoertlichen\r    typischen Variationsbreite, inklusive ihrer Vorwaelder, Gebuesch- und\r    Staudenfluren,\r- Wegen der Seltenheit und besonderen Eigenart des Gebietes.","area":"14.90 ha","in_force_since":2004.0,"factsheet_url":"https://www.wms.nrw.de/html/7680100/BN-010.html"}},{"type":"Feature","geometry":{"type":"MultiPolygon","coordinates":[[[[7.195841,50.714325],[7.194574,50.714622],[7.19372,50.71484],[7.194094,50.715354],[7.193733,50.715439],[7.193741,50.715563],[7.193693,50.715594],[7.194324,50.716185],[7.193652,50.716712],[7.193357,50.716616],[7.192971,50.716456],[7.191863,50.715899],[7.191089,50.716589],[7.18977,50.717564],[7.189115,50.718113],[7.187757,50.717975],[7.186016,50.717767],[7.185828,50.717387],[7.185731,50.7174],[7.185714,50.717369],[7.184341,50.71753],[7.183995,50.717538],[7.183405,50.717519],[7.183246,50.717532],[7.182935,50.717585],[7.181003,50.717944],[7.180506,50.718042],[7.179655,50.718244],[7.178533,50.718576],[7.17815,50.718708],[7.177499,50.718982],[7.177723,50.719321],[7.178762,50.720698],[7.178764,50.720725],[7.177334,50.722786],[7.17842,50.72313],[7.179199,50.723458],[7.179318,50.723538],[7.179327,50.723582],[7.179306,50.723602],[7.179149,50.724353],[7.179016,50.724352],[7.178871,50.72537],[7.177273,50.725486],[7.177062,50.725542],[7.17639,50.725679],[7.176311,50.725677],[7.176313,50.725768],[7.176362,50.725819],[7.176681,50.72612],[7.176857,50.726244],[7.177602,50.726682],[7.178363,50.727107],[7.178666,50.727256],[7.179017,50.727329],[7.179364,50.727337],[7.179825,50.727267],[7.180174,50.727163],[7.180543,50.726966],[7.180741,50.726835],[7.180865,50.726822],[7.181065,50.726755],[7.181114,50.726652],[7.18122,50.726566],[7.181518,50.726445],[7.181647,50.72642],[7.183442,50.72655],[7.184007,50.726372],[7.184138,50.726369],[7.184386,50.726297],[7.184492,50.726293],[7.184768,50.726331],[7.184872,50.726319],[7.185019,50.726265],[7.185372,50.726214],[7.185584,50.726159],[7.185714,50.726138],[7.185843,50.726145],[7.186915,50.725713],[7.186966,50.725784],[7.187622,50.726106],[7.187117,50.726663],[7.186517,50.727209],[7.183969,50.728457],[7.183399,50.728717],[7.182619,50.72917],[7.181442,50.729757],[7.179818,50.73047],[7.178627,50.731163],[7.178225,50.731598],[7.176584,50.732624],[7.176075,50.733709],[7.17572,50.73416],[7.175584,50.734245],[7.175587,50.73435],[7.176051,50.734803],[7.176812,50.735405],[7.177035,50.735641],[7.176985,50.735658],[7.178279,50.737014],[7.178868,50.736739],[7.179727,50.735645],[7.18042,50.735873],[7.180611,50.735637],[7.180605,50.735609],[7.180705,50.735439],[7.180942,50.735116],[7.181782,50.735418],[7.182254,50.735623],[7.182486,50.735699],[7.182369,50.73604],[7.182371,50.736158],[7.182445,50.736225],[7.18286,50.736437],[7.184074,50.737285],[7.184809,50.736938],[7.184932,50.736896],[7.185031,50.736833],[7.185388,50.736699],[7.185401,50.736647],[7.184479,50.735687],[7.184262,50.735418],[7.184525,50.735361],[7.184372,50.735106],[7.18435,50.734497],[7.184788,50.734468],[7.184741,50.734166],[7.184785,50.734188],[7.185117,50.734068],[7.18593,50.735266],[7.185722,50.735338],[7.186502,50.736556],[7.187386,50.736548],[7.187531,50.73652],[7.187693,50.736467],[7.187828,50.736397],[7.187931,50.736306],[7.188047,50.735988],[7.188413,50.735553],[7.188476,50.735273],[7.188588,50.735094],[7.188754,50.734927],[7.189071,50.733972],[7.189081,50.733876],[7.188995,50.733604],[7.188719,50.733077],[7.188662,50.733036],[7.187572,50.732653],[7.186814,50.732671],[7.186071,50.7326],[7.18636,50.732332],[7.186957,50.731828],[7.187031,50.731793],[7.187395,50.732103],[7.187787,50.732364],[7.187977,50.732461],[7.188069,50.732453],[7.188241,50.732526],[7.188273,50.73248],[7.188902,50.732463],[7.188792,50.731815],[7.18864,50.731468],[7.188446,50.730883],[7.188918,50.729961],[7.188906,50.729858],[7.188817,50.729615],[7.188799,50.729426],[7.188933,50.729345],[7.1888,50.729284],[7.188276,50.728964],[7.188791,50.728611],[7.189125,50.728804],[7.189237,50.728658],[7.189533,50.7285],[7.189827,50.728441],[7.18985,50.728408],[7.189858,50.728278],[7.189518,50.728084],[7.190475,50.727435],[7.190542,50.727426],[7.190647,50.727447],[7.190677,50.727481],[7.190483,50.727831],[7.190504,50.727863],[7.190484,50.72792],[7.190377,50.728038],[7.190419,50.728115],[7.190415,50.728239],[7.190449,50.728268],[7.190266,50.728385],[7.190236,50.728424],[7.18999,50.728894],[7.189702,50.729283],[7.189643,50.729426],[7.189597,50.730758],[7.189393,50.731299],[7.189159,50.731699],[7.18917,50.732173],[7.18961,50.731885],[7.19009,50.731422],[7.19023,50.731314],[7.19045,50.731184],[7.190631,50.731103],[7.191347,50.730555],[7.191539,50.730367],[7.191714,50.730161],[7.192262,50.729487],[7.192357,50.729364],[7.192366,50.729322],[7.192628,50.729326],[7.192708,50.729345],[7.193126,50.729534],[7.193209,50.729584],[7.193237,50.729622],[7.193237,50.729654],[7.193185,50.729708],[7.192993,50.72986],[7.192317,50.73031],[7.191889,50.730674],[7.191217,50.73129],[7.192027,50.731612],[7.19166,50.732043],[7.190474,50.731713],[7.189927,50.732321],[7.189921,50.732375],[7.1897,50.732608],[7.189628,50.732718],[7.189579,50.732945],[7.189633,50.73318],[7.189707,50.7333],[7.19004,50.733343],[7.191323,50.733583],[7.191057,50.733994],[7.190991,50.734035],[7.190926,50.734112],[7.190939,50.734159],[7.191008,50.7342],[7.19125,50.73427],[7.191312,50.734274],[7.191424,50.734246],[7.191736,50.734331],[7.191754,50.734359],[7.191739,50.734395],[7.191664,50.73442],[7.191119,50.734542],[7.190805,50.734693],[7.190501,50.734747],[7.190207,50.734904],[7.190185,50.734944],[7.190194,50.735016],[7.190257,50.735151],[7.190239,50.735243],[7.190364,50.735307],[7.190381,50.735356],[7.19033,50.735484],[7.191117,50.736416],[7.191057,50.736615],[7.190779,50.736591],[7.190716,50.736928],[7.190174,50.736925],[7.189285,50.73687],[7.189035,50.736622],[7.18803,50.736978],[7.187456,50.737394],[7.187242,50.737627],[7.186943,50.737844],[7.186902,50.738002],[7.187255,50.738595],[7.187331,50.739132],[7.187407,50.739197],[7.187494,50.739236],[7.187902,50.739308],[7.187066,50.739424],[7.187117,50.739521],[7.187243,50.739674],[7.187035,50.739739],[7.18674,50.739877],[7.186575,50.739906],[7.18655,50.73997],[7.186468,50.740002],[7.183466,50.740453],[7.181895,50.740998],[7.181811,50.740909],[7.181711,50.740896],[7.181374,50.74108],[7.181394,50.741095],[7.181132,50.741237],[7.181162,50.741286],[7.180156,50.74153],[7.180064,50.741414],[7.179791,50.741448],[7.179015,50.741922],[7.178628,50.742033],[7.178369,50.742149],[7.178122,50.741865],[7.178417,50.741769],[7.178658,50.741604],[7.178478,50.741438],[7.178612,50.741314],[7.178819,50.741176],[7.179051,50.7411],[7.179006,50.741052],[7.178722,50.741091],[7.178327,50.741072],[7.177677,50.741164],[7.177126,50.741171],[7.17658,50.74127],[7.176,50.741178],[7.175695,50.741182],[7.175443,50.74132],[7.174596,50.741587],[7.174413,50.741599],[7.174285,50.741565],[7.174022,50.74157],[7.173434,50.741741],[7.173286,50.741812],[7.173178,50.741842],[7.172942,50.741998],[7.172845,50.742099],[7.172467,50.742261],[7.17237,50.742317],[7.172629,50.742678],[7.172389,50.742741],[7.1726,50.743039],[7.171947,50.743218],[7.171797,50.743218],[7.171681,50.743196],[7.171225,50.742975],[7.171094,50.742948],[7.171118,50.742882],[7.171069,50.742531],[7.168905,50.742677],[7.169,50.741895],[7.168118,50.741935],[7.167362,50.741009],[7.16743,50.740928],[7.166748,50.740183],[7.166687,50.740018],[7.166437,50.739785],[7.166234,50.739479],[7.165891,50.739031],[7.164193,50.738978],[7.164122,50.739058],[7.164015,50.739768],[7.163566,50.742246],[7.162322,50.742252],[7.161113,50.742246],[7.161063,50.742224],[7.159332,50.742226],[7.159333,50.741412],[7.158993,50.741411],[7.158875,50.741334],[7.158691,50.741272],[7.157257,50.740804],[7.157185,50.740794],[7.155635,50.740301],[7.156671,50.739061],[7.156899,50.738696],[7.158123,50.738637],[7.157814,50.739055],[7.159688,50.739537],[7.159914,50.739243],[7.160445,50.739423],[7.160945,50.738844],[7.160325,50.73868],[7.160359,50.73863],[7.160355,50.738509],[7.160044,50.738522],[7.159881,50.738441],[7.159298,50.738258],[7.158901,50.738345],[7.157954,50.738146],[7.158078,50.738004],[7.157793,50.737907],[7.157552,50.738169],[7.157797,50.738262],[7.157808,50.738505],[7.156485,50.738561],[7.156481,50.738592],[7.156036,50.73865],[7.156005,50.738332],[7.155783,50.738334],[7.155673,50.738435],[7.155711,50.738714],[7.155264,50.738784],[7.155147,50.738741],[7.154663,50.738483],[7.154827,50.738281],[7.154586,50.738221],[7.154395,50.738434],[7.153534,50.738272],[7.152874,50.738105],[7.153517,50.737258],[7.153161,50.737162],[7.15273,50.73709],[7.151894,50.737033],[7.151258,50.736945],[7.151053,50.73695],[7.150832,50.737015],[7.150821,50.736935],[7.150839,50.736841],[7.15112,50.736541],[7.150783,50.736411],[7.150535,50.736678],[7.149916,50.737109],[7.149029,50.736921],[7.148962,50.736875],[7.148739,50.7361],[7.148673,50.736023],[7.148541,50.735971],[7.148528,50.735892],[7.148761,50.735596],[7.149966,50.736014],[7.150197,50.735758],[7.151089,50.73608],[7.151345,50.735712],[7.150737,50.735505],[7.149559,50.735032],[7.149535,50.735044],[7.149384,50.73499],[7.14931,50.735005],[7.150315,50.733954],[7.150567,50.733717],[7.15111,50.733368],[7.151562,50.733118],[7.151648,50.732948],[7.152055,50.732522],[7.152184,50.73253],[7.152445,50.732507],[7.152583,50.732471],[7.152733,50.732401],[7.152847,50.732292],[7.152955,50.731918],[7.152997,50.731867],[7.153002,50.7317],[7.153111,50.731459],[7.153339,50.73128],[7.15415,50.730712],[7.156088,50.729438],[7.156562,50.729196],[7.158046,50.728369],[7.158286,50.728258],[7.158483,50.728203],[7.158736,50.728177],[7.159181,50.728171],[7.159391,50.727724],[7.159202,50.727589],[7.160008,50.727188],[7.160877,50.726725],[7.161195,50.726885],[7.161671,50.727091],[7.162083,50.727234],[7.162775,50.727428],[7.162938,50.727125],[7.163122,50.72697],[7.163383,50.726827],[7.16482,50.726215],[7.165016,50.726094],[7.165041,50.725974],[7.164991,50.725864],[7.164877,50.725774],[7.164702,50.725682],[7.164884,50.725386],[7.164998,50.725038],[7.165031,50.72483],[7.165015,50.724629],[7.164927,50.724368],[7.164849,50.724186],[7.164726,50.724014],[7.165096,50.723442],[7.165461,50.723],[7.165578,50.722791],[7.166068,50.722148],[7.166328,50.721728],[7.166732,50.721184],[7.167429,50.720404],[7.168226,50.719633],[7.170744,50.717499],[7.17116,50.717134],[7.17168,50.716639],[7.17264,50.715667],[7.173041,50.715231],[7.17485,50.713176],[7.17499,50.713447],[7.175235,50.713216],[7.175462,50.713077],[7.175684,50.713099],[7.176307,50.712918],[7.176531,50.71337],[7.177691,50.713181],[7.177953,50.713076],[7.178098,50.713089],[7.178306,50.71319],[7.178784,50.713024],[7.178759,50.712962],[7.179681,50.712566],[7.179821,50.712698],[7.179964,50.71269],[7.179998,50.712724],[7.180102,50.712702],[7.180024,50.712563],[7.180304,50.712541],[7.180301,50.712509],[7.180832,50.712471],[7.18082,50.712539],[7.180858,50.712538],[7.18084,50.712691],[7.180978,50.712694],[7.180937,50.713037],[7.181299,50.713073],[7.181354,50.712778],[7.181915,50.712813],[7.181975,50.712473],[7.182021,50.712439],[7.182188,50.71237],[7.182544,50.712365],[7.183195,50.712443],[7.183146,50.712567],[7.183364,50.712597],[7.183389,50.712535],[7.183515,50.712554],[7.183476,50.712586],[7.183476,50.712624],[7.183505,50.712655],[7.183842,50.712699],[7.183794,50.712726],[7.183687,50.712747],[7.183612,50.712789],[7.183557,50.712854],[7.183513,50.71297],[7.183799,50.712974],[7.184047,50.71302],[7.184108,50.712742],[7.184072,50.712735],[7.183955,50.712642],[7.184086,50.712514],[7.184218,50.712334],[7.184286,50.712324],[7.184333,50.712342],[7.184708,50.71225],[7.184999,50.712156],[7.185396,50.711955],[7.185507,50.711882],[7.185572,50.711862],[7.185686,50.711715],[7.186001,50.711475],[7.185786,50.711247],[7.185589,50.7113],[7.18556,50.711226],[7.185535,50.710981],[7.185474,50.710931],[7.185517,50.71083],[7.185486,50.710776],[7.185254,50.710552],[7.185061,50.710329],[7.185171,50.710194],[7.185564,50.710333],[7.185527,50.710387],[7.185705,50.710448],[7.185678,50.710536],[7.186277,50.710592],[7.186267,50.71049],[7.18624,50.710482],[7.186369,50.710363],[7.187121,50.710825],[7.187269,50.710782],[7.187825,50.71088],[7.187944,50.711031],[7.187936,50.711124],[7.188181,50.711138],[7.188654,50.711263],[7.189091,50.711398],[7.189653,50.711263],[7.190339,50.711019],[7.190729,50.710992],[7.191346,50.710907],[7.191604,50.710849],[7.192258,50.710755],[7.193667,50.710649],[7.193838,50.710646],[7.19398,50.710681],[7.194091,50.710651],[7.194769,50.711177],[7.1953,50.711556],[7.195207,50.711587],[7.195532,50.712046],[7.195393,50.712092],[7.195927,50.712554],[7.196245,50.712557],[7.197026,50.713345],[7.196889,50.713325],[7.196642,50.713683],[7.196425,50.713792],[7.196174,50.714321],[7.195841,50.714325]]]]},"properties":{"id":"BN-001K1","name":"NSG Siebengebirge Teilgebiet Ennert <BN>","protection_goal":"Gemaess LG Paragraph 20a,b,c\r\r- Zur Erhaltung, Herstellung und Wiederherstellung eines ausgedehnten\r  zusammenhaengenden Laubwaldkomplexes, der aufgrund seiner Groesse \r  und Ausstattung eine zentrale Bedeutung im landesweiten und somit europaeischen \r  Biotopverbundsystem einnimmt, sowie seiner Lebensgemeinschaften und Lebens-\r  staetten von Tieren und Pflanzen - insbesondere der seltenen und stark\r  gefaehrdeten Arten - wobei dem Siebengebirge die Funktion eines ueberregional\r  bedeutsamen Regenerations- und Ausbreitungszentrums zukommt;\r- Zur Erhaltung folgender natuerlicher Lebensraeume von gemeinschaftlichem Interesse\r  gemaess Anhang I der Richtlinie 92/43/EWG des Rates vom 21. Mai 199","area":"496.30 ha","in_force_since":1922.0,"factsheet_url":"https://www.wms.nrw.de/html/7680100/BN-001K1.html"}},{"type":"Feature","geometry":{"type":"MultiPolygon","coordinates":[[[[7.197517,50.647226],[7.19715,50.647519],[7.196975,50.647628],[7.196569,50.647868],[7.195164,50.648617],[7.194982,50.648643],[7.194089,50.64853],[7.193892,50.648532],[7.193683,50.648576],[7.193079,50.648785],[7.192494,50.649354],[7.192438,50.649354],[7.19175,50.648801],[7.191592,50.648693],[7.191487,50.648602],[7.191414,50.648483],[7.190852,50.64887],[7.190535,50.649112],[7.189421,50.64987],[7.188916,50.65009],[7.188748,50.650124],[7.188384,50.650167],[7.187994,50.65015],[7.187886,50.650124],[7.187829,50.650092],[7.187647,50.649924],[7.187571,50.649877],[7.187472,50.649849],[7.187345,50.649847],[7.187189,50.649801],[7.187174,50.649733],[7.187025,50.649433],[7.187277,50.649377],[7.186976,50.648784],[7.188785,50.648489],[7.188741,50.647684],[7.189915,50.646521],[7.191306,50.645187],[7.191857,50.645061],[7.19208,50.645038],[7.19261,50.644887],[7.192558,50.644447],[7.194289,50.642492],[7.195126,50.64295],[7.197155,50.645638],[7.197352,50.646044],[7.198308,50.646643],[7.198078,50.646798],[7.197517,50.647226]]]]},"properties":{"id":"BN-002K1","name":"NSG Rodderberg <BN>","protection_goal":"Die Unterschutzstellung des ca. 29,6 ha großen Gebietes erfolgt:\raufgrund der besonderen Bedeutung des Gebietes gemäß § 23 Abs. 1 Zif. 1 BNatSchG zur Erhaltung \rund Wiederherstellung\r- von vegetationsfreien und vegetationsarmen Schlackenbereichen\r- gut ausgebildeten Pflanzengesellschaften wie Sandpionierrasen, flechtenreicher Sedum-Pionier-\rgesellschaften, Trocken- und Halbtrockenrasen, Magerwiesen und Glatthaferwiesen mit gefährdeten \rArten\r- extensiven artenreichen Grünlandbereichen\r- eines Lebensraumes für thermophile Tier- und Pflanzenarten, die im Bereich des Rodderberges \rzum Teil die Nordgrenze ihrer Verbreitung in Mitteleuropa erreichen\rgem. § 32 Abs. 2 BNatSchG und Art. 2 u. 3 der F","area":"29.60 ha","in_force_since":1928.0,"factsheet_url":"https://www.wms.nrw.de/html/7680100/BN-002K1.html"}},{"type":"Feature","geometry":{"type":"MultiPolygon","coordinates":[[[[7.109552,50.658212],[7.109511,50.65873],[7.110527,50.658702],[7.110707,50.659397],[7.110762,50.659516],[7.11093,50.659526],[7.111312,50.659409],[7.11157,50.659437],[7.111745,50.659492],[7.112601,50.659832],[7.112908,50.659939],[7.113272,50.660102],[7.113473,50.660258],[7.114153,50.660669],[7.114305,50.660795],[7.116309,50.661699],[7.119486,50.660546],[7.121534,50.659776],[7.121661,50.659825],[7.121766,50.659905],[7.121989,50.660013],[7.12217,50.660136],[7.122716,50.660455],[7.122901,50.660537],[7.123312,50.660664],[7.122423,50.660935],[7.122673,50.661194],[7.122886,50.661296],[7.123066,50.66136],[7.122878,50.661532],[7.122728,50.661718],[7.122743,50.661756],[7.122675,50.66187],[7.122714,50.661932],[7.122725,50.662209],[7.122879,50.662541],[7.123154,50.662917],[7.123416,50.663072],[7.123785,50.663024],[7.12407,50.663009],[7.124314,50.663004],[7.124642,50.663019],[7.125077,50.662991],[7.12541,50.662987],[7.126192,50.662992],[7.126657,50.663014],[7.127544,50.663098],[7.128017,50.663078],[7.128828,50.662719],[7.129457,50.662939],[7.12979,50.662772],[7.130159,50.662527],[7.130277,50.662589],[7.130311,50.662624],[7.130391,50.662617],[7.130704,50.66246],[7.13053,50.662282],[7.12957,50.66177],[7.129497,50.661654],[7.129042,50.661586],[7.128715,50.661517],[7.128615,50.661473],[7.128613,50.661374],[7.128849,50.66121],[7.128028,50.661155],[7.128588,50.660723],[7.12879,50.660537],[7.130213,50.661282],[7.130499,50.66147],[7.130839,50.661779],[7.131166,50.662122],[7.131428,50.662491],[7.13156,50.662746],[7.131716,50.663176],[7.13208,50.664301],[7.132312,50.664779],[7.132462,50.664998],[7.132683,50.665213],[7.133856,50.666637],[7.133983,50.666832],[7.132823,50.66693],[7.132875,50.666974],[7.13381,50.66821],[7.134053,50.668574],[7.133661,50.668667],[7.13346,50.668862],[7.133222,50.668921],[7.132652,50.669364],[7.131919,50.670068],[7.134074,50.6712],[7.134643,50.671483],[7.134841,50.671722],[7.135166,50.671978],[7.134792,50.672411],[7.13468,50.672444],[7.132924,50.672426],[7.132674,50.672613],[7.132678,50.672777],[7.132651,50.672845],[7.133346,50.673071],[7.13355,50.673185],[7.133742,50.673368],[7.133848,50.673507],[7.133985,50.673753],[7.134205,50.673724],[7.13427,50.673687],[7.134389,50.673767],[7.133979,50.674071],[7.134791,50.674522],[7.134733,50.674645],[7.134366,50.675137],[7.134208,50.6752],[7.134038,50.675202],[7.13416,50.675377],[7.133969,50.675596],[7.133895,50.675627],[7.133904,50.676389],[7.133861,50.676527],[7.134125,50.676608],[7.134676,50.676603],[7.135588,50.67652],[7.135803,50.676416],[7.136479,50.675571],[7.136945,50.675116],[7.137073,50.675496],[7.13719,50.675684],[7.13731,50.675943],[7.137804,50.676404],[7.137568,50.676449],[7.137256,50.676576],[7.137403,50.676868],[7.137147,50.677082],[7.136677,50.677321],[7.13589,50.677564],[7.135935,50.677782],[7.136247,50.67814],[7.136024,50.678201],[7.134968,50.678219],[7.134639,50.678273],[7.133853,50.678574],[7.133068,50.679447],[7.131936,50.679055],[7.131178,50.679944],[7.130751,50.680317],[7.129987,50.681533],[7.129878,50.682038],[7.128575,50.681611],[7.127785,50.681434],[7.127036,50.682355],[7.126752,50.682657],[7.126529,50.682597],[7.12636,50.682807],[7.122535,50.681555],[7.119892,50.682093],[7.121497,50.683991],[7.122201,50.684152],[7.123291,50.684973],[7.123983,50.685185],[7.125059,50.685418],[7.12687,50.686013],[7.129123,50.686831],[7.129423,50.686895],[7.129408,50.68707],[7.129493,50.687335],[7.129801,50.687623],[7.130105,50.687761],[7.130234,50.687962],[7.130217,50.688082],[7.130136,50.68822],[7.129869,50.68856],[7.129913,50.688746],[7.12986,50.68888],[7.130068,50.689298],[7.13061,50.689847],[7.130665,50.689964],[7.13005,50.690213],[7.129671,50.689852],[7.129617,50.689499],[7.12954,50.689296],[7.129521,50.689047],[7.129473,50.688948],[7.129256,50.688655],[7.129163,50.688593],[7.128881,50.688534],[7.128666,50.688332],[7.128405,50.687815],[7.128086,50.687647],[7.127742,50.68765],[7.127326,50.687939],[7.127117,50.688034],[7.127266,50.688192],[7.127096,50.688269],[7.126634,50.688274],[7.1267,50.688819],[7.126702,50.68944],[7.12693,50.689597],[7.126465,50.690063],[7.125763,50.690523],[7.124845,50.689735],[7.124282,50.688842],[7.123715,50.688361],[7.123366,50.688095],[7.122374,50.686963],[7.123076,50.686511],[7.121897,50.685801],[7.120732,50.685149],[7.118781,50.682028],[7.117133,50.677631],[7.117155,50.677617],[7.117062,50.67746],[7.116173,50.676497],[7.114798,50.676427],[7.111237,50.676289],[7.107514,50.676789],[7.104898,50.677156],[7.101637,50.677583],[7.094055,50.678622],[7.093573,50.678674],[7.092163,50.680701],[7.087365,50.680385],[7.087144,50.68134],[7.086092,50.681272],[7.08482,50.681791],[7.084416,50.682161],[7.084378,50.682557],[7.084302,50.682698],[7.084052,50.683022],[7.084047,50.683236],[7.083968,50.683463],[7.083913,50.683726],[7.08373,50.683927],[7.083638,50.684383],[7.083673,50.684681],[7.083654,50.684886],[7.083668,50.685077],[7.083737,50.685425],[7.083758,50.685752],[7.083586,50.686608],[7.083511,50.6868],[7.083365,50.687379],[7.08331,50.687674],[7.083308,50.68799],[7.083255,50.688103],[7.082881,50.688568],[7.082509,50.688491],[7.082234,50.688774],[7.081744,50.688644],[7.081573,50.689152],[7.081234,50.689093],[7.081183,50.68934],[7.081616,50.689429],[7.081532,50.689817],[7.081489,50.689814],[7.081421,50.689919],[7.081517,50.690016],[7.081694,50.690143],[7.081207,50.690171],[7.081234,50.690329],[7.081309,50.690331],[7.081319,50.69037],[7.081532,50.690454],[7.081561,50.690504],[7.081556,50.690671],[7.081597,50.690846],[7.081571,50.690915],[7.081415,50.691083],[7.081304,50.691323],[7.081339,50.691427],[7.081438,50.691473],[7.08145,50.691529],[7.081411,50.6916],[7.080871,50.691452],[7.080942,50.691327],[7.079129,50.690897],[7.079152,50.691231],[7.079947,50.691547],[7.080006,50.691467],[7.080055,50.691465],[7.08046,50.69156],[7.080575,50.691374],[7.081559,50.691639],[7.08135,50.691909],[7.081016,50.692248],[7.080831,50.69236],[7.080756,50.692358],[7.080656,50.69232],[7.080543,50.6923],[7.080166,50.692602],[7.080777,50.692688],[7.08054,50.693161],[7.080422,50.69335],[7.080217,50.693614],[7.079618,50.694142],[7.079549,50.694117],[7.079449,50.694148],[7.079006,50.694032],[7.078991,50.694001],[7.079263,50.692783],[7.079276,50.692548],[7.079236,50.692156],[7.078108,50.692084],[7.078091,50.692796],[7.078121,50.693061],[7.078092,50.693452],[7.077996,50.693781],[7.078773,50.693954],[7.078811,50.693984],[7.078742,50.694288],[7.078545,50.694269],[7.078453,50.694785],[7.078628,50.694843],[7.078713,50.69506],[7.078765,50.69511],[7.07844,50.695447],[7.078119,50.695739],[7.077893,50.695714],[7.077648,50.696067],[7.07766,50.696198],[7.077757,50.696308],[7.078092,50.696608],[7.078146,50.696706],[7.078165,50.696941],[7.078115,50.697013],[7.077862,50.697224],[7.077776,50.697335],[7.07723,50.698102],[7.076964,50.698533],[7.076621,50.699546],[7.076694,50.699837],[7.076758,50.699995],[7.076695,50.70051],[7.076687,50.700778],[7.076821,50.70193],[7.076803,50.702156],[7.076666,50.702699],[7.076651,50.702871],[7.076669,50.703016],[7.076737,50.703166],[7.076592,50.703185],[7.075922,50.702807],[7.075567,50.702647],[7.075203,50.702317],[7.075067,50.702095],[7.074532,50.702097],[7.073846,50.702037],[7.07341,50.702038],[7.072959,50.70198],[7.072973,50.702596],[7.073028,50.703173],[7.073295,50.70438],[7.073298,50.704725],[7.073248,50.705191],[7.073279,50.705545],[7.073509,50.706385],[7.073556,50.70679],[7.07371,50.707166],[7.073808,50.707347],[7.072419,50.707295],[7.072384,50.707426],[7.072112,50.707425],[7.071929,50.707859],[7.071781,50.708119],[7.071605,50.708636],[7.070847,50.708723],[7.070793,50.708581],[7.070826,50.708402],[7.070915,50.708193],[7.070899,50.708116],[7.071121,50.707959],[7.070602,50.70785],[7.070379,50.708123],[7.069836,50.708167],[7.069718,50.707939],[7.069848,50.707661],[7.070042,50.707322],[7.070108,50.707152],[7.070232,50.706421],[7.070231,50.706174],[7.070544,50.705498],[7.07088,50.704572],[7.070654,50.704532],[7.070075,50.704469],[7.070296,50.704074],[7.070296,50.703854],[7.070247,50.703384],[7.069966,50.702529],[7.069886,50.702145],[7.069907,50.701826],[7.070179,50.700567],[7.070172,50.700273],[7.07014,50.700091],[7.069585,50.699194],[7.069506,50.699013],[7.069462,50.698766],[7.069476,50.698543],[7.069538,50.698376],[7.069684,50.698416],[7.070082,50.698567],[7.070498,50.698751],[7.070553,50.6987],[7.0718,50.699272],[7.072042,50.699401],[7.072744,50.698549],[7.073517,50.697487],[7.073552,50.697353],[7.073586,50.697028],[7.073829,50.696552],[7.074016,50.696125],[7.074161,50.695727],[7.074302,50.695535],[7.074159,50.695412],[7.074354,50.695335],[7.074438,50.695317],[7.07492,50.694863],[7.074584,50.694714],[7.074691,50.694677],[7.075038,50.694483],[7.075742,50.693688],[7.075878,50.693484],[7.075688,50.693379],[7.07602,50.693149],[7.075643,50.692861],[7.07561,50.692656],[7.075467,50.692541],[7.074593,50.692189],[7.072928,50.69169],[7.071954,50.691112],[7.072157,50.690907],[7.071633,50.690705],[7.071342,50.690359],[7.071009,50.690412],[7.070718,50.690486],[7.070688,50.690459],[7.070595,50.689957],[7.070293,50.689635],[7.070215,50.689321],[7.070017,50.689332],[7.069859,50.688596],[7.069112,50.688118],[7.068612,50.68795],[7.068312,50.687929],[7.068312,50.687668],[7.068051,50.68753],[7.067748,50.687415],[7.067145,50.68713],[7.066496,50.686858],[7.065729,50.686504],[7.065596,50.686514],[7.064718,50.68631],[7.063555,50.68597],[7.063027,50.685875],[7.062702,50.685796],[7.062479,50.685985],[7.062431,50.685986],[7.061804,50.685769],[7.061612,50.685739],[7.061161,50.685731],[7.060852,50.685303],[7.060769,50.68528],[7.060748,50.685204],[7.060467,50.684833],[7.06042,50.684676],[7.060445,50.684427],[7.060408,50.684148],[7.059334,50.684132],[7.058704,50.68422],[7.05846,50.684005],[7.058349,50.684029],[7.0582,50.684153],[7.057959,50.684237],[7.057397,50.684469],[7.057135,50.684339],[7.057385,50.683397],[7.059249,50.682771],[7.060639,50.683691],[7.060784,50.683717],[7.06195,50.684962],[7.062577,50.684967],[7.063245,50.685084],[7.063261,50.685044],[7.064004,50.684764],[7.065501,50.685188],[7.065839,50.685051],[7.065793,50.684475],[7.065267,50.681884],[7.065063,50.681052],[7.065084,50.681],[7.064993,50.680536],[7.064913,50.680475],[7.064792,50.680187],[7.065089,50.680097],[7.064899,50.679367],[7.064789,50.678791],[7.064644,50.678605],[7.064527,50.677868],[7.064182,50.676958],[7.064679,50.676842],[7.064829,50.676931],[7.064846,50.67752],[7.065325,50.677925],[7.065349,50.678785],[7.065519,50.678828],[7.066058,50.6801],[7.065426,50.680348],[7.065537,50.680878],[7.065727,50.68155],[7.065819,50.682062],[7.065951,50.682285],[7.066123,50.682383],[7.066142,50.68258],[7.066322,50.683019],[7.066557,50.683138],[7.066706,50.684002],[7.06674,50.684784],[7.066927,50.685854],[7.067298,50.685809],[7.067516,50.686126],[7.067371,50.686128],[7.068141,50.687202],[7.068308,50.687312],[7.068299,50.68757],[7.068561,50.687603],[7.069321,50.687637],[7.070215,50.688117],[7.070237,50.688289],[7.070383,50.688416],[7.070525,50.6888],[7.071029,50.689472],[7.071508,50.689848],[7.071742,50.690176],[7.072913,50.691052],[7.0737,50.691446],[7.074858,50.691744],[7.075393,50.691719],[7.075597,50.691808],[7.076094,50.691651],[7.076444,50.691418],[7.076366,50.691285],[7.076613,50.690997],[7.076697,50.690758],[7.076929,50.690461],[7.077164,50.690092],[7.077287,50.689919],[7.077393,50.68987],[7.077552,50.689848],[7.077483,50.689678],[7.07688,50.688541],[7.076845,50.688431],[7.076864,50.688234],[7.077373,50.686321],[7.077928,50.68639],[7.078144,50.685608],[7.078478,50.685658],[7.078635,50.685338],[7.078187,50.68483],[7.077792,50.684771],[7.077802,50.68439],[7.077877,50.683827],[7.079407,50.683736],[7.079546,50.683769],[7.079643,50.683506],[7.080051,50.683136],[7.080372,50.682812],[7.080178,50.682724],[7.080324,50.682574],[7.080051,50.682487],[7.080582,50.681732],[7.080634,50.681718],[7.080723,50.681745],[7.081032,50.68073],[7.081017,50.680709],[7.081465,50.680392],[7.081603,50.680087],[7.082577,50.680031],[7.082634,50.67989],[7.082074,50.679169],[7.081317,50.679453],[7.080916,50.678959],[7.080716,50.678601],[7.080581,50.678227],[7.080435,50.678023],[7.080332,50.677794],[7.080373,50.677136],[7.080303,50.676139],[7.080934,50.676073],[7.080145,50.675378],[7.07977,50.675352],[7.078161,50.675295],[7.078211,50.675024],[7.078214,50.674765],[7.078182,50.674366],[7.077941,50.673883],[7.077789,50.673372],[7.07775,50.673128],[7.077678,50.673045],[7.077484,50.672952],[7.076901,50.672856],[7.076764,50.67281],[7.076611,50.672704],[7.076474,50.672631],[7.07637,50.672596],[7.075904,50.672532],[7.074822,50.672333],[7.074638,50.672311],[7.073979,50.672304],[7.07428,50.671787],[7.07379,50.671719],[7.073944,50.671415],[7.074652,50.669822],[7.074128,50.669624],[7.074209,50.669489],[7.074143,50.669472],[7.074007,50.669482],[7.073899,50.669447],[7.073746,50.669338],[7.073672,50.669595],[7.073172,50.669412],[7.073318,50.669253],[7.072245,50.668873],[7.072428,50.668669],[7.072066,50.668595],[7.070203,50.668293],[7.067581,50.66921],[7.06463,50.67028],[7.063858,50.670546],[7.065387,50.672241],[7.06509,50.672363],[7.064979,50.672424],[7.064953,50.672513],[7.064992,50.672596],[7.065091,50.67264],[7.065218,50.672642],[7.06559,50.672507],[7.065943,50.672846],[7.065109,50.673163],[7.065347,50.673347],[7.065578,50.673567],[7.065994,50.674017],[7.066291,50.67415],[7.066549,50.674322],[7.066641,50.674293],[7.066722,50.674346],[7.0668,50.674373],[7.066211,50.675571],[7.064878,50.675632],[7.06477,50.675838],[7.064737,50.676446],[7.063553,50.676091],[7.062125,50.676634],[7.06151,50.676896],[7.061519,50.676853],[7.061858,50.676347],[7.062092,50.675939],[7.062143,50.675755],[7.062346,50.675502],[7.062614,50.674745],[7.062816,50.673858],[7.062838,50.673615],[7.06286,50.672691],[7.062781,50.671924],[7.062695,50.671405],[7.062619,50.671119],[7.062531,50.67087],[7.062113,50.669929],[7.061738,50.669249],[7.061405,50.66872],[7.06219,50.668415],[7.060769,50.666881],[7.057982,50.663783],[7.054647,50.660134],[7.053706,50.659131],[7.052294,50.657556],[7.051422,50.656642],[7.050834,50.655968],[7.050472,50.655517],[7.049076,50.65399],[7.048886,50.653761],[7.048646,50.653426],[7.048528,50.653226],[7.04818,50.652526],[7.04774,50.651509],[7.047082,50.650385],[7.046683,50.649891],[7.046662,50.649678],[7.046585,50.64956],[7.046456,50.649465],[7.046279,50.64939],[7.046149,50.649313],[7.046059,50.649243],[7.045985,50.649138],[7.045939,50.649014],[7.045895,50.64862],[7.045918,50.647858],[7.046006,50.647261],[7.046175,50.64662],[7.046398,50.64602],[7.04661,50.645544],[7.04709,50.644749],[7.047497,50.644175],[7.047832,50.643777],[7.048507,50.643082],[7.049452,50.642257],[7.05105,50.641119],[7.053662,50.639431],[7.053877,50.639271],[7.059345,50.638419],[7.058362,50.636118],[7.059558,50.635045],[7.059845,50.634767],[7.06011,50.634452],[7.060458,50.634123],[7.060937,50.633504],[7.061268,50.632994],[7.06169,50.63306],[7.061897,50.633063],[7.061899,50.632959],[7.063748,50.632932],[7.066758,50.634053],[7.067498,50.634311],[7.068493,50.634596],[7.068449,50.634639],[7.068564,50.634677],[7.068565,50.634706],[7.071722,50.63583],[7.072462,50.636076],[7.075197,50.637217],[7.075353,50.63826],[7.074709,50.639526],[7.074945,50.640675],[7.07517,50.641185],[7.075372,50.641427],[7.075487,50.641664],[7.075568,50.641685],[7.076101,50.642324],[7.076234,50.642353],[7.076925,50.642845],[7.080537,50.644295],[7.081815,50.644352],[7.081777,50.644655],[7.081799,50.644904],[7.0817,50.644957],[7.082034,50.645853],[7.082184,50.646171],[7.082187,50.646257],[7.081897,50.646557],[7.081845,50.646718],[7.083576,50.647266],[7.083634,50.64708],[7.083882,50.64679],[7.084223,50.64691],[7.087118,50.648222],[7.087331,50.648756],[7.087398,50.648874],[7.088416,50.64874],[7.089033,50.649177],[7.091292,50.650559],[7.09329,50.651298],[7.093371,50.65138],[7.093444,50.651355],[7.094405,50.651554],[7.095825,50.652429],[7.096646,50.653122],[7.097555,50.653811],[7.098631,50.655219],[7.099701,50.655936],[7.099856,50.656126],[7.10009,50.656169],[7.101234,50.656756],[7.102699,50.657365],[7.103609,50.657706],[7.103693,50.657647],[7.10396,50.657835],[7.104159,50.657992],[7.105355,50.659603],[7.105368,50.659586],[7.105383,50.659603],[7.106668,50.658809],[7.107849,50.658449],[7.108028,50.658506],[7.108254,50.658462],[7.108304,50.658391],[7.108383,50.658416],[7.108501,50.658411],[7.108532,50.658435],[7.108775,50.658424],[7.108888,50.658275],[7.109054,50.65826],[7.10915,50.658219],[7.109235,50.658227],[7.109552,50.658212]],[[7.039402,50.677191],[7.040319,50.676684],[7.040498,50.67646],[7.041653,50.675672],[7.0431,50.674629],[7.043796,50.674497],[7.044251,50.674376],[7.044244,50.674347],[7.044282,50.674337],[7.043664,50.672503],[7.042862,50.671051],[7.042495,50.670557],[7.041712,50.669134],[7.041099,50.668167],[7.040241,50.667422],[7.040014,50.666912],[7.039907,50.666596],[7.039824,50.666049],[7.040121,50.665528],[7.040515,50.665075],[7.040951,50.664617],[7.040927,50.663908],[7.040665,50.663817],[7.037512,50.661685],[7.036509,50.661407],[7.034177,50.661436],[7.034,50.661459],[7.033883,50.661492],[7.032228,50.662114],[7.028903,50.663668],[7.027767,50.664449],[7.026617,50.665001],[7.026504,50.664978],[7.026323,50.66516],[7.025675,50.665362],[7.025133,50.665405],[7.024824,50.665412],[7.024373,50.664787],[7.023929,50.664268],[7.02487,50.664561],[7.024871,50.664015],[7.024084,50.663717],[7.024022,50.663578],[7.023543,50.662465],[7.023769,50.66151],[7.023507,50.661459],[7.02361,50.661199],[7.023687,50.661079],[7.023809,50.660694],[7.023996,50.660007],[7.024231,50.658915],[7.024311,50.658758],[7.02448,50.658262],[7.025097,50.656753],[7.025302,50.656035],[7.025913,50.654386],[7.02622,50.654705],[7.026683,50.655144],[7.029267,50.654732],[7.032524,50.654648],[7.033173,50.654012],[7.034286,50.652457],[7.035529,50.650848],[7.036277,50.649969],[7.036858,50.64973],[7.037416,50.649304],[7.037808,50.649169],[7.038191,50.649012],[7.039018,50.648431],[7.040057,50.647559],[7.042013,50.646571],[7.042161,50.646766],[7.042747,50.647426],[7.043668,50.64843],[7.044291,50.649056],[7.044609,50.649434],[7.044669,50.649598],[7.045169,50.650213],[7.045514,50.650754],[7.045733,50.651128],[7.046087,50.651866],[7.046655,50.652793],[7.04758,50.653925],[7.048681,50.655181],[7.0494,50.65594],[7.049613,50.656227],[7.050064,50.656726],[7.050222,50.656861],[7.050548,50.657201],[7.053355,50.660159],[7.055449,50.662454],[7.056638,50.663688],[7.058796,50.666104],[7.059876,50.667453],[7.060549,50.668414],[7.060914,50.669036],[7.061331,50.669851],[7.061655,50.670682],[7.06176,50.671006],[7.061884,50.67152],[7.06204,50.672415],[7.062054,50.673031],[7.062021,50.67363],[7.061896,50.674331],[7.061887,50.674528],[7.061546,50.675448],[7.061278,50.676022],[7.060999,50.676525],[7.060265,50.677645],[7.05996,50.678035],[7.058517,50.680157],[7.057663,50.681555],[7.057312,50.682216],[7.057224,50.682443],[7.056973,50.683166],[7.056968,50.683354],[7.056628,50.683485],[7.055909,50.683819],[7.053905,50.684543],[7.046867,50.687141],[7.046197,50.687373],[7.042914,50.688582],[7.04251,50.688341],[7.0423,50.68837],[7.04221,50.688326],[7.041891,50.688082],[7.04168,50.688086],[7.041548,50.688073],[7.041464,50.688094],[7.041339,50.68817],[7.04136,50.688232],[7.041263,50.688331],[7.041096,50.688398],[7.040736,50.688452],[7.040308,50.688572],[7.040176,50.688558],[7.039921,50.688483],[7.039814,50.688496],[7.039553,50.688576],[7.039431,50.688574],[7.039332,50.688536],[7.039071,50.688604],[7.038862,50.688695],[7.038919,50.688725],[7.038981,50.688807],[7.038993,50.688894],[7.038966,50.688947],[7.038897,50.688999],[7.039084,50.689217],[7.038843,50.689336],[7.037946,50.689701],[7.037639,50.689189],[7.03708,50.689185],[7.037388,50.68911],[7.038167,50.688828],[7.038431,50.688861],[7.038779,50.688641],[7.039014,50.688529],[7.038956,50.688445],[7.038534,50.688005],[7.037904,50.688144],[7.037113,50.688292],[7.036999,50.688174],[7.037055,50.687531],[7.037151,50.687069],[7.037386,50.687071],[7.037381,50.686926],[7.036778,50.686773],[7.035899,50.686719],[7.03543,50.686565],[7.035682,50.686365],[7.035361,50.686019],[7.034971,50.685243],[7.03486,50.68498],[7.034621,50.684689],[7.03412,50.683742],[7.033797,50.683034],[7.033577,50.682744],[7.033301,50.681881],[7.032929,50.681076],[7.032563,50.680703],[7.032252,50.680526],[7.031713,50.680283],[7.031277,50.680061],[7.031325,50.679854],[7.031295,50.679313],[7.031422,50.678641],[7.031742,50.678609],[7.031845,50.678571],[7.031837,50.678553],[7.032181,50.678413],[7.032786,50.678193],[7.033869,50.677845],[7.038556,50.677449],[7.038831,50.677382],[7.039015,50.677319],[7.039295,50.677264],[7.039402,50.677191]],[[7.045296,50.648869],[7.043942,50.648058],[7.043585,50.647814],[7.043644,50.647742],[7.043476,50.647535],[7.042391,50.646357],[7.042891,50.646084],[7.043261,50.645776],[7.044068,50.645162],[7.045575,50.644299],[7.045856,50.644114],[7.046913,50.643116],[7.04767,50.64228],[7.048069,50.642005],[7.048285,50.64181],[7.049136,50.641537],[7.049017,50.641666],[7.048589,50.641992],[7.048897,50.642156],[7.048015,50.642947],[7.04742,50.643542],[7.046936,50.644106],[7.046804,50.644286],[7.046554,50.644649],[7.046117,50.645394],[7.045861,50.645961],[7.045603,50.646733],[7.045488,50.647195],[7.045395,50.647661],[7.045313,50.648377],[7.045307,50.648541],[7.045351,50.648853],[7.045296,50.648869]]]]},"properties":{"id":"BN-003","name":"NSG Kottenforst","protection_goal":"Die Unterschutzstellung des ca. 2.300 ha großen Gebietes erfolgt:\rgemäß § 23 Abs. 1 Zif. 1 BNatSchG zur Erhaltung und Wiederherstellung\r- eines ausgedehnten zusammenhängenden Laubwaldkomplexes, der aufgrund seiner Größe \rund Ausstattung eine zentrale Bedeutung im landesweiten und somit europäischen Biotopver-\rbundsystem einnimmt sowie seiner Lebensgemeinschaften und Lebensstätten von Tieren \rund Pflanzen\r- der seltenen und stark gefährdeten Arten - wobei dem Kottenforst die Funktion eines überregio-\rnal bedeutsamen Regenerations- und Ausbreitungszentrums zukommt\r- der Waldlebensgemeinschaften im Waldgebiet des Kottenforstes mit den für die natürlichen Laub-\rwaldgemeinschaften typischen Arten","area":"2300.00 ha","in_force_since":1986.0,"factsheet_url":"https://www.wms.nrw.de/html/7680100/BN-003.html"}},{"type":"Feature","geometry":{"type":"MultiPolygon","coordinates":[[[[7.090187,50.697068],[7.090323,50.696967],[7.090633,50.696608],[7.090695,50.696479],[7.09088,50.695818],[7.090689,50.695716],[7.090722,50.695582],[7.090799,50.695447],[7.090942,50.695557],[7.091212,50.695907],[7.091295,50.69605],[7.091353,50.696186],[7.091523,50.696852],[7.091581,50.697011],[7.091699,50.69722],[7.092521,50.698362],[7.091628,50.698455],[7.091779,50.698863],[7.091873,50.698935],[7.09122,50.699069],[7.09065,50.699308],[7.090324,50.699789],[7.089964,50.700163],[7.089736,50.700495],[7.089324,50.700716],[7.089101,50.700939],[7.088974,50.701008],[7.088887,50.701131],[7.088629,50.701341],[7.087419,50.702008],[7.087119,50.70214],[7.087066,50.702217],[7.087294,50.702359],[7.087367,50.702554],[7.087421,50.7026],[7.087499,50.702606],[7.087525,50.702672],[7.087385,50.702729],[7.086554,50.702788],[7.086282,50.70295],[7.085931,50.703474],[7.085635,50.704051],[7.085456,50.704468],[7.084928,50.704636],[7.0852,50.704993],[7.085066,50.705046],[7.085333,50.705359],[7.0852,50.705399],[7.085357,50.705704],[7.08558,50.705988],[7.085292,50.70614],[7.085331,50.706314],[7.085734,50.706608],[7.085911,50.706809],[7.085952,50.706907],[7.086191,50.707091],[7.086655,50.707401],[7.086758,50.70749],[7.087023,50.708187],[7.087148,50.708126],[7.087256,50.708102],[7.087322,50.708119],[7.087333,50.708187],[7.087147,50.708392],[7.087176,50.708439],[7.087368,50.708616],[7.087519,50.708659],[7.087607,50.708799],[7.087707,50.709087],[7.087725,50.709256],[7.087706,50.709429],[7.088187,50.708924],[7.088462,50.70868],[7.088573,50.708623],[7.088755,50.708582],[7.088907,50.708632],[7.089008,50.708747],[7.088755,50.708955],[7.088558,50.70916],[7.088598,50.709264],[7.08859,50.709315],[7.088446,50.709415],[7.088364,50.709514],[7.088324,50.709803],[7.088221,50.710021],[7.088229,50.710131],[7.088316,50.710259],[7.088453,50.710287],[7.088546,50.710268],[7.088602,50.710238],[7.088647,50.71019],[7.088664,50.710086],[7.088718,50.710049],[7.088878,50.710105],[7.088986,50.710228],[7.088986,50.710336],[7.088913,50.710454],[7.088895,50.710632],[7.089513,50.711863],[7.089679,50.712233],[7.089655,50.712268],[7.089826,50.712329],[7.089908,50.712376],[7.089991,50.712459],[7.090031,50.712544],[7.090028,50.712721],[7.089999,50.712807],[7.090035,50.712856],[7.090032,50.712906],[7.089998,50.713026],[7.090034,50.713424],[7.090028,50.71345],[7.089975,50.713491],[7.089959,50.713541],[7.089964,50.713631],[7.090006,50.713671],[7.089927,50.713729],[7.089659,50.713702],[7.08946,50.714183],[7.089189,50.714266],[7.088776,50.71421],[7.088739,50.714267],[7.088312,50.714666],[7.088176,50.714636],[7.087923,50.714497],[7.088074,50.713929],[7.087978,50.713756],[7.088129,50.713438],[7.088175,50.713202],[7.0881,50.712339],[7.087989,50.711941],[7.088075,50.711396],[7.08805,50.711281],[7.087768,50.711243],[7.087007,50.711194],[7.086868,50.710916],[7.086751,50.710461],[7.086299,50.710567],[7.086159,50.710575],[7.086096,50.709467],[7.086022,50.709479],[7.085869,50.708902],[7.08524,50.70799],[7.085062,50.708034],[7.084791,50.707775],[7.084372,50.707079],[7.083478,50.707184],[7.083465,50.707026],[7.083302,50.706659],[7.083559,50.706626],[7.083544,50.706582],[7.083959,50.706498],[7.083706,50.705977],[7.083639,50.705924],[7.083445,50.705951],[7.083304,50.705527],[7.084054,50.705526],[7.084029,50.705369],[7.083969,50.705266],[7.083982,50.705201],[7.084039,50.705144],[7.084004,50.704668],[7.084088,50.70454],[7.08445,50.704115],[7.084507,50.704013],[7.08469,50.703829],[7.084941,50.703375],[7.085011,50.703305],[7.08519,50.703252],[7.085235,50.70322],[7.085251,50.703175],[7.085279,50.703093],[7.084766,50.702937],[7.08469,50.702901],[7.084677,50.702877],[7.084874,50.702851],[7.084953,50.702816],[7.085071,50.702633],[7.085133,50.702469],[7.086142,50.701904],[7.086755,50.701708],[7.087169,50.701456],[7.087276,50.70134],[7.087823,50.701147],[7.088141,50.701065],[7.088331,50.700983],[7.088563,50.700937],[7.088799,50.700841],[7.088831,50.700849],[7.089227,50.700574],[7.089362,50.700399],[7.089511,50.700288],[7.089608,50.700134],[7.089662,50.699953],[7.089762,50.699816],[7.089744,50.699784],[7.089769,50.699731],[7.089895,50.699577],[7.089972,50.699435],[7.090151,50.699294],[7.09022,50.699211],[7.090266,50.699196],[7.090321,50.699139],[7.090365,50.699031],[7.090397,50.698781],[7.090292,50.698675],[7.090249,50.697721],[7.090251,50.697153],[7.090187,50.697068]]]]},"properties":{"id":"BN-011","name":"NSG Melbtal","protection_goal":"Die Unterschutzstellung des ca. 20 ha großen Gebietes erfolgt:\r gemäß § 23 Abs. 1 Zif. 1 BNatSchG zur Erhaltung, Entwicklung und Wiederherstellung, insbeson-\rdere aufgrund\r- der naturnahen Ausprägung des Baches mit zahlreichen für natürliche Fließgewässer charakteristi-\rschen Strukturen, Sicker- und Sumpfquellen sowie des Bachtales mit begleitenden Hangwäldern\r- der strukturreichen Waldbereiche mit standortheimischen Gehölzen, altersgemischten Beständen \rund einem hohem Alt- und Totholzanteil\r- der Bedeutung des Raumes für zahlreiche seltene und gefährdete Tier- und Pflanzenarten, insbeson-\rdere Vögel, Fledermäuse und Amphibien\r- der Bedeutung als Bestandteil des landesweiten Biotopverbundes","area":"20.00 ha","in_force_since":2013.0,"factsheet_url":"https://www.wms.nrw.de/html/7680100/BN-011.html"}},{"type":"Feature","geometry":{"type":"MultiPolygon","coordinates":[[[[7.160765,50.66658],[7.160777,50.666328],[7.1609,50.666137],[7.161136,50.666076],[7.161416,50.666068],[7.161678,50.666022],[7.162173,50.665747],[7.162664,50.665688],[7.162851,50.665334],[7.163003,50.665316],[7.163207,50.66532],[7.163342,50.665286],[7.163529,50.665268],[7.163665,50.665288],[7.163838,50.66506],[7.164093,50.6651],[7.164176,50.665024],[7.164323,50.665104],[7.164388,50.664973],[7.1652,50.665208],[7.165398,50.665298],[7.165598,50.665496],[7.165456,50.665606],[7.16525,50.665823],[7.164981,50.666169],[7.164684,50.666598],[7.164501,50.666622],[7.164443,50.666672],[7.164313,50.666832],[7.164272,50.666937],[7.164265,50.667113],[7.164004,50.667354],[7.163654,50.667641],[7.162971,50.667337],[7.162863,50.667425],[7.162534,50.667291],[7.161517,50.666771],[7.161288,50.666683],[7.160946,50.666579],[7.160765,50.66658]]]]},"properties":{"id":"BN-012","name":"NSG Steinbruch Lyngsberg","protection_goal":"Die Unterschutzstellung des ca. 5,4 ha großen Gebietes erfolgt:\raufgrund der besonderen Bedeutung des Gebietes gemäß § 23 Abs. 1 Zif. 1 BNatSchG zur \rErhaltung, Entwicklung oder Wiederherstellung\r- von vegetationsfreien und vegetationsarmen Felswänden und -köpfen sowie Blockschutthalden\r- von wertvollen Pflanzengesellschaften und seltenen,  bestandsgefährdeten Pflanzenarten \rwie Elsbeere, Feldulme, Raue Nelke, Wiesensalbei, Aufrechter Ziest, Heilziest und Flügelginster\r- als potenzieller Lebensraum für Wanderfalke, Uhu in den Felswänden\r- als potenzieller Lebensraum für Mauereidechse und Schlingnatter in den Schutthalden\r- als potenzieller Lebensraum für Hirschkäfer\r- als Lebensraum für Fled","area":"5.40 ha","in_force_since":2013.0,"factsheet_url":"https://www.wms.nrw.de/html/7680100/BN-012.html"}}]}